<?xml version="1.0" encoding="UTF-8"?>
<gpx creator="https://gpx.studio" version="1.1" xmlns="http://www.topografix.com/GPX/1/1" xmlns:xsi="http://www.w3.org/2001/XMLSchema-instance" xsi:schemaLocation="http://www.topografix.com/GPX/1/1 http://www.topografix.com/GPX/1/1/gpx.xsd http://www.garmin.com/xmlschemas/GpxExtensions/v3 http://www.garmin.com/xmlschemas/GpxExtensionsv3.xsd http://www.garmin.com/xmlschemas/TrackPointExtension/v1 http://www.garmin.com/xmlschemas/TrackPointExtensionv1.xsd http://www.garmin.com/xmlschemas/PowerExtension/v1 http://www.garmin.com/xmlschemas/PowerExtensionv1.xsd http://www.topografix.com/GPX/gpx_style/0/2 http://www.topografix.com/GPX/gpx_style/0/2/gpx_style.xsd" xmlns:gpxtpx="http://www.garmin.com/xmlschemas/TrackPointExtension/v1" xmlns:gpxx="http://www.garmin.com/xmlschemas/GpxExtensions/v3" xmlns:gpxpx="http://www.garmin.com/xmlschemas/PowerExtension/v1" xmlns:gpx_style="http://www.topografix.com/GPX/gpx_style/0/2">
  <metadata>
    <name>New file 1</name>
    <author>
      <name>gpx.studio</name>
      <link href="https://gpx.studio"/>
    </author>
  </metadata>
  <trk>
    <name>New file 1</name>
    <trkseg>
      <trkpt lat="36.674634" lon="127.959635">
        <ele>310.75</ele>
        <extensions>
          <gpxtpx:TrackPointExtension>
            <gpxtpx:Extensions>
              <reversedirection>yes</reversedirection>
              <highway>path</highway>
            </gpxtpx:Extensions>
          </gpxtpx:TrackPointExtension>
        </extensions>
      </trkpt>
      <trkpt lat="36.674403" lon="127.959598">
        <ele>315.75</ele>
        <extensions>
          <gpxtpx:TrackPointExtension>
            <gpxtpx:Extensions>
              <reversedirection>yes</reversedirection>
              <highway>path</highway>
            </gpxtpx:Extensions>
          </gpxtpx:TrackPointExtension>
        </extensions>
      </trkpt>
      <trkpt lat="36.674177" lon="127.959641">
        <ele>319.75</ele>
        <extensions>
          <gpxtpx:TrackPointExtension>
            <gpxtpx:Extensions>
              <reversedirection>yes</reversedirection>
              <highway>path</highway>
            </gpxtpx:Extensions>
          </gpxtpx:TrackPointExtension>
        </extensions>
      </trkpt>
      <trkpt lat="36.674062" lon="127.959626">
        <ele>318.75</ele>
        <extensions>
          <gpxtpx:TrackPointExtension>
            <gpxtpx:Extensions>
              <reversedirection>yes</reversedirection>
              <highway>path</highway>
            </gpxtpx:Extensions>
          </gpxtpx:TrackPointExtension>
        </extensions>
      </trkpt>
      <trkpt lat="36.673906" lon="127.959718">
        <ele>316</ele>
        <extensions>
          <gpxtpx:TrackPointExtension>
            <gpxtpx:Extensions>
              <reversedirection>yes</reversedirection>
              <highway>path</highway>
            </gpxtpx:Extensions>
          </gpxtpx:TrackPointExtension>
        </extensions>
      </trkpt>
      <trkpt lat="36.673815" lon="127.959787">
        <ele>314.25</ele>
        <extensions>
          <gpxtpx:TrackPointExtension>
            <gpxtpx:Extensions>
              <reversedirection>yes</reversedirection>
              <highway>path</highway>
            </gpxtpx:Extensions>
          </gpxtpx:TrackPointExtension>
        </extensions>
      </trkpt>
      <trkpt lat="36.673724" lon="127.960022">
        <ele>311.5</ele>
        <extensions>
          <gpxtpx:TrackPointExtension>
            <gpxtpx:Extensions>
              <reversedirection>yes</reversedirection>
              <highway>path</highway>
            </gpxtpx:Extensions>
          </gpxtpx:TrackPointExtension>
        </extensions>
      </trkpt>
      <trkpt lat="36.673068" lon="127.960089">
        <ele>306.25</ele>
        <extensions>
          <gpxtpx:TrackPointExtension>
            <gpxtpx:Extensions>
              <reversedirection>yes</reversedirection>
              <highway>path</highway>
            </gpxtpx:Extensions>
          </gpxtpx:TrackPointExtension>
        </extensions>
      </trkpt>
      <trkpt lat="36.672952" lon="127.960272">
        <ele>305</ele>
        <extensions>
          <gpxtpx:TrackPointExtension>
            <gpxtpx:Extensions>
              <reversedirection>yes</reversedirection>
              <highway>path</highway>
            </gpxtpx:Extensions>
          </gpxtpx:TrackPointExtension>
        </extensions>
      </trkpt>
      <trkpt lat="36.672885" lon="127.960422">
        <ele>303.75</ele>
        <extensions>
          <gpxtpx:TrackPointExtension>
            <gpxtpx:Extensions>
              <reversedirection>yes</reversedirection>
              <highway>path</highway>
            </gpxtpx:Extensions>
          </gpxtpx:TrackPointExtension>
        </extensions>
      </trkpt>
      <trkpt lat="36.672848" lon="127.960557">
        <ele>302.75</ele>
        <extensions>
          <gpxtpx:TrackPointExtension>
            <gpxtpx:Extensions>
              <reversedirection>yes</reversedirection>
              <highway>path</highway>
            </gpxtpx:Extensions>
          </gpxtpx:TrackPointExtension>
        </extensions>
      </trkpt>
      <trkpt lat="36.672687" lon="127.961341">
        <ele>296.75</ele>
        <extensions>
          <gpxtpx:TrackPointExtension>
            <gpxtpx:Extensions>
              <reversedirection>yes</reversedirection>
              <highway>path</highway>
            </gpxtpx:Extensions>
          </gpxtpx:TrackPointExtension>
        </extensions>
      </trkpt>
      <trkpt lat="36.672657" lon="127.961434">
        <ele>295.75</ele>
        <extensions>
          <gpxtpx:TrackPointExtension>
            <gpxtpx:Extensions>
              <reversedirection>yes</reversedirection>
              <highway>path</highway>
            </gpxtpx:Extensions>
          </gpxtpx:TrackPointExtension>
        </extensions>
      </trkpt>
      <trkpt lat="36.672621" lon="127.961494">
        <ele>290.1594067765207</ele>
      </trkpt>
      <trkpt lat="36.6721735649651" lon="127.96143829557893">
        <ele>290.56724646156744</ele>
      </trkpt>
      <trkpt lat="36.67209455364238" lon="127.96142845888835">
        <ele>290.88512541741864</ele>
      </trkpt>
      <trkpt lat="36.671772380202356" lon="127.96177275458462">
        <ele>296.3491513815052</ele>
      </trkpt>
      <trkpt lat="36.67195205785537" lon="127.96228667757197">
        <ele>302.21934220942285</ele>
      </trkpt>
      <trkpt lat="36.67196798566624" lon="127.96233223509125">
        <ele>302.14971991052374</ele>
      </trkpt>
      <trkpt lat="36.671873768777814" lon="127.96288041623049">
        <ele>302.0202132293032</ele>
      </trkpt>
      <trkpt lat="36.671864429893944" lon="127.96293475256113">
        <ele>301.373583210261</ele>
      </trkpt>
      <trkpt lat="36.67188128030707" lon="127.96349498421105">
        <ele>291.81988598179765</ele>
      </trkpt>
      <trkpt lat="36.6718981307202" lon="127.964055215861">
        <ele>289.82406841108616</ele>
      </trkpt>
      <trkpt lat="36.671898948500214" lon="127.96408240488256">
        <ele>289.7496717979587</ele>
      </trkpt>
      <trkpt lat="36.672067476269135" lon="127.96460216721152">
        <ele>282.97025423422565</ele>
      </trkpt>
      <trkpt lat="36.672117565979434" lon="127.9647566506219">
        <ele>281.4041511826225</ele>
      </trkpt>
      <trkpt lat="36.672336182837526" lon="127.9648857615096">
        <ele>276.6426769935614</ele>
      </trkpt>
      <trkpt lat="36.67221714874695" lon="127.96542638941227">
        <ele>279.27908922158</ele>
      </trkpt>
      <trkpt lat="36.6721750943621" lon="127.9656173916182">
        <ele>280.5497184136931</ele>
      </trkpt>
      <trkpt lat="36.67206897576063" lon="127.9661621828358">
        <ele>282.46484040544914</ele>
      </trkpt>
      <trkpt lat="36.671979489424686" lon="127.96662158740054">
        <ele>278.2513659679777</ele>
      </trkpt>
      <trkpt lat="36.67190492946407" lon="127.96717445202825">
        <ele>274.9829807093754</ele>
      </trkpt>
      <trkpt lat="36.67183036950346" lon="127.96772731665595">
        <ele>274.8038046171938</ele>
      </trkpt>
      <trkpt lat="36.671760871553175" lon="127.96824264630601">
        <ele>277.94403010764313</ele>
      </trkpt>
      <trkpt lat="36.671767435236305" lon="127.96880321116221">
        <ele>277.9445582239498</ele>
      </trkpt>
      <trkpt lat="36.67177237777294" lon="127.96922532360753">
        <ele>279.5473325688399</ele>
      </trkpt>
      <trkpt lat="36.671957713251906" lon="127.96973611387365">
        <ele>271.3852136611012</ele>
      </trkpt>
      <trkpt lat="36.671990995611466" lon="127.96982784107769">
        <ele>270.01585200708445</ele>
      </trkpt>
      <trkpt lat="36.67231412238097" lon="127.97021771346843">
        <ele>263.80780635563576</ele>
      </trkpt>
      <trkpt lat="36.67234768654079" lon="127.97025821069883">
        <ele>263.5776318846273</ele>
      </trkpt>
      <trkpt lat="36.672315649579865" lon="127.970817414667">
        <ele>264.7724825517511</ele>
      </trkpt>
      <trkpt lat="36.67231316813661" lon="127.97086072816717">
        <ele>264.63911370793437</ele>
      </trkpt>
      <trkpt lat="36.672002501796584" lon="127.97116198690225">
        <ele>266.19691830674793</ele>
      </trkpt>
      <trkpt lat="36.67159860950206" lon="127.97140841006835">
        <ele>269.4100033898326</ele>
      </trkpt>
      <trkpt lat="36.671194717207534" lon="127.97165483323447">
        <ele>272.1420040912078</ele>
      </trkpt>
      <trkpt lat="36.67092091290182" lon="127.97182188698821">
        <ele>272.6905649437134</ele>
      </trkpt>
      <trkpt lat="36.670501224546776" lon="127.9720231359048">
        <ele>267.12722801325486</ele>
      </trkpt>
      <trkpt lat="36.67008153619174" lon="127.9722243848214">
        <ele>260.63080412963893</ele>
      </trkpt>
      <trkpt lat="36.6698738283182" lon="127.97232398487944">
        <ele>259.77051342359914</ele>
      </trkpt>
      <trkpt lat="36.669516452878376" lon="127.97266422579862">
        <ele>260.3286425160375</ele>
      </trkpt>
      <trkpt lat="36.669240968091444" lon="127.97292650234783">
        <ele>262.0790646000642</ele>
      </trkpt>
      <trkpt lat="36.6691760790277" lon="127.9734812403677">
        <ele>258.0286642531167</ele>
      </trkpt>
      <trkpt lat="36.669160421871084" lon="127.97361509374076">
        <ele>258.84946985860756</ele>
      </trkpt>
      <trkpt lat="36.66934215826016" lon="127.97412787290097">
        <ele>257.9769196316838</ele>
      </trkpt>
      <trkpt lat="36.66937904713029" lon="127.97423195686537">
        <ele>258.2584517052407</ele>
      </trkpt>
      <trkpt lat="36.66980974347216" lon="127.9743930466372">
        <ele>251.64717828276207</ele>
      </trkpt>
      <trkpt lat="36.66983930880426" lon="127.97440410471256">
        <ele>251.1529870794177</ele>
      </trkpt>
      <trkpt lat="36.66996588028154" lon="127.97479143737235">
        <ele>249.57641271650306</ele>
      </trkpt>
      <trkpt lat="36.66973575016716" lon="127.97509269610742">
        <ele>252.34191832360827</ele>
      </trkpt>
      <trkpt lat="36.66958575313057" lon="127.97562119453436">
        <ele>249.20987172567678</ele>
      </trkpt>
      <trkpt lat="36.66947109968544" lon="127.9760251636178">
        <ele>245.29570591251098</ele>
      </trkpt>
      <trkpt lat="36.66922168327724" lon="127.97649162427436">
        <ele>242.83987175532224</ele>
      </trkpt>
      <trkpt lat="36.66897226686904" lon="127.9769580849309">
        <ele>243.05535034949003</ele>
      </trkpt>
      <trkpt lat="36.66889580157522" lon="127.97710109096414">
        <ele>243.20501429117795</ele>
      </trkpt>
      <trkpt lat="36.669045387860734" lon="127.97743104100618">
        <ele>241.16314787932066</ele>
      </trkpt>
      <trkpt lat="36.66886086320535" lon="127.9779422675117">
        <ele>239.6029332488321</ele>
      </trkpt>
      <trkpt lat="36.66873470832766" lon="127.9782917802483">
        <ele>240.48879889714578</ele>
      </trkpt>
      <trkpt lat="36.66867690269984" lon="127.9788477308596">
        <ele>244.2537402731477</ele>
      </trkpt>
      <trkpt lat="36.66865416157742" lon="127.97906644556588">
        <ele>247.4524628070424</ele>
      </trkpt>
      <trkpt lat="36.66893771397199" lon="127.97950153782598">
        <ele>241.27892985787702</ele>
      </trkpt>
      <trkpt lat="36.669102920969934" lon="127.97975503695875">
        <ele>239.86250337008403</ele>
      </trkpt>
      <trkpt lat="36.66955195964465" lon="127.97978450183919">
        <ele>233.9736815490972</ele>
      </trkpt>
      <trkpt lat="36.66975879537502" lon="127.97979807392198">
        <ele>233.30826434753618</ele>
      </trkpt>
      <trkpt lat="36.67020845555688" lon="127.97979807392198">
        <ele>233.0565589218794</ele>
      </trkpt>
      <trkpt lat="36.67065811573874" lon="127.97979807392198">
        <ele>230.05302882138704</ele>
      </trkpt>
      <trkpt lat="36.67084040060425" lon="127.97979807392198">
        <ele>228.36433124737928</ele>
      </trkpt>
      <trkpt lat="36.671208603171024" lon="127.98007064134828">
        <ele>226.4996489242944</ele>
      </trkpt>
      <trkpt lat="36.67138119751783" lon="127.98054404793066">
        <ele>225.26472278032546</ele>
      </trkpt>
      <trkpt lat="36.67138119751783" lon="127.98110466970861">
        <ele>223.5460194316982</ele>
      </trkpt>
      <trkpt lat="36.67138119751783" lon="127.98121829367113">
        <ele>223.26855551620247</ele>
      </trkpt>
      <trkpt lat="36.671185590562374" lon="127.98156258936751">
        <ele>222.38543308141757</ele>
      </trkpt>
      <trkpt lat="36.671185590562374" lon="127.98156258936751">
        <ele>222.38543308141757</ele>
      </trkpt>
      <trkpt lat="36.671034950054086" lon="127.98209081346764">
        <ele>222.0723866916973</ele>
      </trkpt>
      <trkpt lat="36.67100148944378" lon="127.98220814379908">
        <ele>222.4560381295869</ele>
      </trkpt>
      <trkpt lat="36.670913303827035" lon="127.98275787559838">
        <ele>222.12722915213206</ele>
      </trkpt>
      <trkpt lat="36.670897932371474" lon="127.98285369823066">
        <ele>221.51730290418203</ele>
      </trkpt>
      <trkpt lat="36.67067297745566" lon="127.98333911705515">
        <ele>220.9719847411832</ele>
      </trkpt>
      <trkpt lat="36.67059876671189" lon="127.98349925266223">
        <ele>220.4256016032741</ele>
      </trkpt>
      <trkpt lat="36.67026508056624" lon="127.98328406785174">
        <ele>223.69503328314323</ele>
      </trkpt>
      <trkpt lat="36.66986235398029" lon="127.98347056135344">
        <ele>227.2261988035936</ele>
      </trkpt>
      <trkpt lat="36.66970126275611" lon="127.98392962228144">
        <ele>227.22989665968396</ele>
      </trkpt>
      <trkpt lat="36.669827834460435" lon="127.98435999190247">
        <ele>221.14095950597053</ele>
      </trkpt>
      <trkpt lat="36.66962318913888" lon="127.98485917804206">
        <ele>221.85734294584122</ele>
      </trkpt>
      <trkpt lat="36.6695631842954" lon="127.98500554633404">
        <ele>223.0833692247227</ele>
      </trkpt>
      <trkpt lat="36.66952307672156" lon="127.98556392011845">
        <ele>224.00868618014283</ele>
      </trkpt>
      <trkpt lat="36.66949414497181" lon="127.98596670515514">
        <ele>225.4495229419232</ele>
      </trkpt>
      <trkpt lat="36.66955490000037" lon="127.98652217287753">
        <ele>225.8588074158888</ele>
      </trkpt>
      <trkpt lat="36.669597703934016" lon="127.98691351831997">
        <ele>230.6393112573253</ele>
      </trkpt>
      <trkpt lat="36.66986236534464" lon="127.9871143223661">
        <ele>224.62681990022028</ele>
      </trkpt>
      <trkpt lat="36.670230741318655" lon="127.9874358124617">
        <ele>217.1935498346383</ele>
      </trkpt>
      <trkpt lat="36.670322624127806" lon="127.98751600068022">
        <ele>215.81135529919544</ele>
      </trkpt>
      <trkpt lat="36.67060290271612" lon="127.98795438768015">
        <ele>217.0623077106871</ele>
      </trkpt>
      <trkpt lat="36.67088318130443" lon="127.98839277468007">
        <ele>216.82727913868285</ele>
      </trkpt>
      <trkpt lat="36.67095547545905" lon="127.98850585080817">
        <ele>216.77559328181772</ele>
      </trkpt>
      <trkpt lat="36.67107429148343" lon="127.98904654494477">
        <ele>221.39717542324274</ele>
      </trkpt>
      <trkpt lat="36.67118560192576" lon="127.98955308355204">
        <ele>219.22590558524232</ele>
      </trkpt>
      <trkpt lat="36.67113116859336" lon="127.9901095808262">
        <ele>221.31977116254313</ele>
      </trkpt>
      <trkpt lat="36.6711280703736" lon="127.99014125536786">
        <ele>221.40579166754708</ele>
      </trkpt>
      <trkpt lat="36.67103771379336" lon="127.99069043885508">
        <ele>223.28220096523995</ele>
      </trkpt>
      <trkpt lat="36.670947357213116" lon="127.99123962234232">
        <ele>223.07288837181474</ele>
      </trkpt>
      <trkpt lat="36.67085700063288" lon="127.99178880582954">
        <ele>220.33217744957838</ele>
      </trkpt>
      <trkpt lat="36.67076664405264" lon="127.99233798931677">
        <ele>217.3017452748085</ele>
      </trkpt>
      <trkpt lat="36.67075986742141" lon="127.99237917739583">
        <ele>217.08579155802812</ele>
      </trkpt>
      <trkpt lat="36.670650389818135" lon="127.99292292470606">
        <ele>215.3875887077487</ele>
      </trkpt>
      <trkpt lat="36.67063246567007" lon="127.99301194937419">
        <ele>214.7654422301898</ele>
      </trkpt>
      <trkpt lat="36.67085108674712" lon="127.9932701711461">
        <ele>209.17221997192013</ele>
      </trkpt>
      <trkpt lat="36.67077054221208" lon="127.99360012118808">
        <ele>203.54421917330535</ele>
      </trkpt>
      <trkpt lat="36.67088560580798" lon="127.99377226903738">
        <ele>200.41752108240667</ele>
      </trkpt>
      <trkpt lat="36.67087490264623" lon="127.99433272832489">
        <ele>197.44265633920477</ele>
      </trkpt>
      <trkpt lat="36.670874099455844" lon="127.9943747865056">
        <ele>197.52523656793764</ele>
      </trkpt>
      <trkpt lat="36.67131811218986" lon="127.99446335916952">
        <ele>198.8202388215069</ele>
      </trkpt>
      <trkpt lat="36.671449414940525" lon="127.99448955173904">
        <ele>199.34750197918592</ele>
      </trkpt>
      <trkpt lat="36.67171706506927" lon="127.99494004514804">
        <ele>202.63958615792512</ele>
      </trkpt>
      <trkpt lat="36.67190966423124" lon="127.99526421705656">
        <ele>204.15862872385475</ele>
      </trkpt>
    </trkseg>
  </trk>
</gpx>
