<?xml version="1.0" encoding="UTF-8"?>
<gpx creator="Ramblr - http://www.ramblr.com" version="1.1" xmlns="http://www.topografix.com/GPX/1/1">
<metadata>
<name>남한산성 장수의길 1코스</name>
<desc>Bientus, Inc. - www.ramblr.com - Share your outdoor stories on a map!</desc>
<author>
<name>brchoi99</name>
</author>
<link href="https://www.ramblr.com/web/mymap/trip/912417/8149176"></link>
<time>2025-02-21T01:37:57Z</time>
</metadata>
<trk>
<name>남한산성 장수의길 1코스</name>
<trkseg>
<trkpt lat="37.47793687" lon="127.18462513"><ele>354.70458984375</ele><time>2025-02-21T01:37:58Z</time></trkpt>
<trkpt lat="37.47793533" lon="127.18461118"><ele>355.048095703125</ele><time>2025-02-21T01:37:59Z</time></trkpt>
<trkpt lat="37.47798476" lon="127.18451234"><ele>353.2237548828125</ele><time>2025-02-21T01:38:11Z</time></trkpt>
<trkpt lat="37.47806383" lon="127.18445688"><ele>353.0684814453125</ele><time>2025-02-21T01:38:20Z</time></trkpt>
<trkpt lat="37.47811361" lon="127.18435685"><ele>353.22076416015625</ele><time>2025-02-21T01:38:43Z</time></trkpt>
<trkpt lat="37.47819573" lon="127.18428729"><ele>352.7451171875</ele><time>2025-02-21T01:38:51Z</time></trkpt>
<trkpt lat="37.47825819" lon="127.18419903"><ele>352.1146240234375</ele><time>2025-02-21T01:39:00Z</time></trkpt>
<trkpt lat="37.47833731" lon="127.18413577"><ele>352.55242919921875</ele><time>2025-02-21T01:39:12Z</time></trkpt>
<trkpt lat="37.47843944" lon="127.18414018"><ele>354.0467529296875</ele><time>2025-02-21T01:39:22Z</time></trkpt>
<trkpt lat="37.47852763" lon="127.18417942"><ele>354.6766357421875</ele><time>2025-02-21T01:39:29Z</time></trkpt>
<trkpt lat="37.47861941" lon="127.18418716"><ele>355.2535400390625</ele><time>2025-02-21T01:39:36Z</time></trkpt>
<trkpt lat="37.47871849" lon="127.18417179"><ele>354.80389404296875</ele><time>2025-02-21T01:39:45Z</time></trkpt>
<trkpt lat="37.47881142" lon="127.18417763"><ele>357.08782958984375</ele><time>2025-02-21T01:39:53Z</time></trkpt>
<trkpt lat="37.4789042" lon="127.18418695"><ele>357.817626953125</ele><time>2025-02-21T01:40:01Z</time></trkpt>
<trkpt lat="37.47900159" lon="127.18416674"><ele>356.47955322265625</ele><time>2025-02-21T01:40:14Z</time></trkpt>
<trkpt lat="37.47908636" lon="127.18421468"><ele>355.22979736328125</ele><time>2025-02-21T01:40:28Z</time></trkpt>
<trkpt lat="37.47918608" lon="127.18422892"><ele>354.322998046875</ele><time>2025-02-21T01:40:36Z</time></trkpt>
<trkpt lat="37.47928728" lon="127.18423265"><ele>354.74163818359375</ele><time>2025-02-21T01:40:45Z</time></trkpt>
<trkpt lat="37.47938204" lon="127.18423764"><ele>356.510986328125</ele><time>2025-02-21T01:40:53Z</time></trkpt>
<trkpt lat="37.47947499" lon="127.1842455"><ele>356.69134521484375</ele><time>2025-02-21T01:41:01Z</time></trkpt>
<trkpt lat="37.47957106" lon="127.18426212"><ele>358.0118408203125</ele><time>2025-02-21T01:41:10Z</time></trkpt>
<trkpt lat="37.47966955" lon="127.18427878"><ele>357.9544677734375</ele><time>2025-02-21T01:41:19Z</time></trkpt>
<trkpt lat="37.4797656" lon="127.18429667"><ele>357.2767333984375</ele><time>2025-02-21T01:41:28Z</time></trkpt>
<trkpt lat="37.47986339" lon="127.18429846"><ele>359.9635009765625</ele><time>2025-02-21T01:41:37Z</time></trkpt>
<trkpt lat="37.47996439" lon="127.18429798"><ele>359.721923828125</ele><time>2025-02-21T01:41:47Z</time></trkpt>
<trkpt lat="37.48006132" lon="127.18427867"><ele>360.8421630859375</ele><time>2025-02-21T01:41:56Z</time></trkpt>
<trkpt lat="37.48015471" lon="127.18426708"><ele>363.12548828125</ele><time>2025-02-21T01:42:06Z</time></trkpt>
<trkpt lat="37.48024611" lon="127.18425548"><ele>365.20989990234375</ele><time>2025-02-21T01:42:16Z</time></trkpt>
<trkpt lat="37.48034407" lon="127.18423374"><ele>365.1739501953125</ele><time>2025-02-21T01:42:29Z</time></trkpt>
<trkpt lat="37.48042633" lon="127.18428577"><ele>366.3143310546875</ele><time>2025-02-21T01:42:44Z</time></trkpt>
<trkpt lat="37.48051664" lon="127.18427617"><ele>367.12420654296875</ele><time>2025-02-21T01:42:54Z</time></trkpt>
<trkpt lat="37.48061171" lon="127.18427826"><ele>367.6851806640625</ele><time>2025-02-21T01:43:05Z</time></trkpt>
<trkpt lat="37.48070813" lon="127.18429777"><ele>368.55377197265625</ele><time>2025-02-21T01:43:15Z</time></trkpt>
<trkpt lat="37.48079936" lon="127.18431666"><ele>368.9168701171875</ele><time>2025-02-21T01:43:24Z</time></trkpt>
<trkpt lat="37.48088527" lon="127.18435606"><ele>370.6148681640625</ele><time>2025-02-21T01:43:36Z</time></trkpt>
<trkpt lat="37.48096925" lon="127.18440221"><ele>370.87457275390625</ele><time>2025-02-21T01:43:48Z</time></trkpt>
<trkpt lat="37.48104919" lon="127.18446199"><ele>373.0863037109375</ele><time>2025-02-21T01:44:00Z</time></trkpt>
<trkpt lat="37.48111979" lon="127.18454636"><ele>374.5401611328125</ele><time>2025-02-21T01:44:12Z</time></trkpt>
<trkpt lat="37.48119122" lon="127.18461729"><ele>376.18896484375</ele><time>2025-02-21T01:44:25Z</time></trkpt>
<trkpt lat="37.48125315" lon="127.1846998"><ele>378.84619140625</ele><time>2025-02-21T01:44:38Z</time></trkpt>
<trkpt lat="37.48133549" lon="127.18475563"><ele>381.52880859375</ele><time>2025-02-21T01:45:07Z</time></trkpt>
<trkpt lat="37.48142782" lon="127.18474713"><ele>383.14373779296875</ele><time>2025-02-21T01:45:18Z</time></trkpt>
<trkpt lat="37.48151901" lon="127.18477159"><ele>385.82708740234375</ele><time>2025-02-21T01:48:53Z</time></trkpt>
<trkpt lat="37.48160808" lon="127.18480053"><ele>387.6314697265625</ele><time>2025-02-21T01:49:11Z</time></trkpt>
<trkpt lat="37.48167645" lon="127.18488256"><ele>384.5960693359375</ele><time>2025-02-21T01:49:33Z</time></trkpt>
<trkpt lat="37.48162764" lon="127.18478365"><ele>379.0643310546875</ele><time>2025-02-21T01:50:16Z</time></trkpt>
<trkpt lat="37.48156595" lon="127.18469748"><ele>382.275634765625</ele><time>2025-02-21T01:50:25Z</time></trkpt>
<trkpt lat="37.4816102" lon="127.18459217"><ele>384.97283935546875</ele><time>2025-02-21T01:50:42Z</time></trkpt>
<trkpt lat="37.48164757" lon="127.18448"><ele>387.0804443359375</ele><time>2025-02-21T01:50:52Z</time></trkpt>
<trkpt lat="37.48167817" lon="127.18436297"><ele>388.5435791015625</ele><time>2025-02-21T01:51:02Z</time></trkpt>
<trkpt lat="37.48170175" lon="127.1842455"><ele>391.26165771484375</ele><time>2025-02-21T01:51:12Z</time></trkpt>
<trkpt lat="37.48175453" lon="127.18414501"><ele>392.407958984375</ele><time>2025-02-21T01:51:22Z</time></trkpt>
<trkpt lat="37.48181837" lon="127.18406167"><ele>394.4434814453125</ele><time>2025-02-21T01:51:32Z</time></trkpt>
<trkpt lat="37.48188413" lon="127.18396993"><ele>395.9378662109375</ele><time>2025-02-21T01:51:42Z</time></trkpt>
<trkpt lat="37.48194623" lon="127.18388672"><ele>397.19921875</ele><time>2025-02-21T01:51:52Z</time></trkpt>
<trkpt lat="37.48201901" lon="127.18380439"><ele>398.99853515625</ele><time>2025-02-21T01:52:02Z</time></trkpt>
<trkpt lat="37.48209919" lon="127.18374102"><ele>400.1287841796875</ele><time>2025-02-21T01:52:13Z</time></trkpt>
<trkpt lat="37.48219432" lon="127.18374681"><ele>399.8848876953125</ele><time>2025-02-21T01:52:27Z</time></trkpt>
<trkpt lat="37.48228956" lon="127.18378202"><ele>401.81610107421875</ele><time>2025-02-21T01:52:39Z</time></trkpt>
<trkpt lat="37.48238752" lon="127.18379895"><ele>404.82232666015625</ele><time>2025-02-21T01:52:49Z</time></trkpt>
<trkpt lat="37.4824813" lon="127.18382164"><ele>406.0887451171875</ele><time>2025-02-21T01:53:00Z</time></trkpt>
<trkpt lat="37.48257831" lon="127.183832"><ele>408.9124755859375</ele><time>2025-02-21T01:53:13Z</time></trkpt>
<trkpt lat="37.48266853" lon="127.1838469"><ele>410.4718017578125</ele><time>2025-02-21T01:53:24Z</time></trkpt>
<trkpt lat="37.48276102" lon="127.18386601"><ele>412.20831298828125</ele><time>2025-02-21T01:53:36Z</time></trkpt>
<trkpt lat="37.48285546" lon="127.1838645"><ele>414.31201171875</ele><time>2025-02-21T01:53:48Z</time></trkpt>
<trkpt lat="37.48294112" lon="127.183805"><ele>414.9462890625</ele><time>2025-02-21T01:54:00Z</time></trkpt>
<trkpt lat="37.48301308" lon="127.18372893"><ele>417.94110107421875</ele><time>2025-02-21T01:54:11Z</time></trkpt>
<trkpt lat="37.48308708" lon="127.18364613"><ele>417.506591796875</ele><time>2025-02-21T01:54:24Z</time></trkpt>
<trkpt lat="37.48316298" lon="127.18357077"><ele>419.82806396484375</ele><time>2025-02-21T01:54:34Z</time></trkpt>
<trkpt lat="37.48323309" lon="127.18349254"><ele>420.423828125</ele><time>2025-02-21T01:54:44Z</time></trkpt>
<trkpt lat="37.48330906" lon="127.18342981"><ele>420.048095703125</ele><time>2025-02-21T01:54:56Z</time></trkpt>
<trkpt lat="37.48339668" lon="127.18337196"><ele>420.942138671875</ele><time>2025-02-21T01:55:07Z</time></trkpt>
<trkpt lat="37.48347873" lon="127.18331518"><ele>419.98046875</ele><time>2025-02-21T01:55:31Z</time></trkpt>
<trkpt lat="37.48354101" lon="127.18321858"><ele>419.08154296875</ele><time>2025-02-21T01:55:41Z</time></trkpt>
<trkpt lat="37.48357498" lon="127.18310931"><ele>420.29736328125</ele><time>2025-02-21T01:55:50Z</time></trkpt>
<trkpt lat="37.48363299" lon="127.18301055"><ele>418.65863037109375</ele><time>2025-02-21T01:56:04Z</time></trkpt>
<trkpt lat="37.48367575" lon="127.18290582"><ele>418.4554443359375</ele><time>2025-02-21T01:56:15Z</time></trkpt>
<trkpt lat="37.48372867" lon="127.18280258"><ele>417.6380615234375</ele><time>2025-02-21T01:56:26Z</time></trkpt>
<trkpt lat="37.48380438" lon="127.18273358"><ele>416.61968994140625</ele><time>2025-02-21T01:56:37Z</time></trkpt>
<trkpt lat="37.48387028" lon="127.182644"><ele>417.8583984375</ele><time>2025-02-21T01:57:02Z</time></trkpt>
<trkpt lat="37.48391418" lon="127.18253122"><ele>417.2239990234375</ele><time>2025-02-21T01:57:12Z</time></trkpt>
<trkpt lat="37.48390871" lon="127.18241386"><ele>417.8955078125</ele><time>2025-02-21T01:57:38Z</time></trkpt>
<trkpt lat="37.48390603" lon="127.18229499"><ele>415.9317626953125</ele><time>2025-02-21T01:57:53Z</time></trkpt>
<trkpt lat="37.48392695" lon="127.18218245"><ele>417.4736328125</ele><time>2025-02-21T01:58:08Z</time></trkpt>
<trkpt lat="37.48395323" lon="127.18207144"><ele>417.7161865234375</ele><time>2025-02-21T01:58:25Z</time></trkpt>
<trkpt lat="37.4839748" lon="127.18196121"><ele>418.589599609375</ele><time>2025-02-21T01:58:34Z</time></trkpt>
<trkpt lat="37.48397817" lon="127.18183683"><ele>418.6685791015625</ele><time>2025-02-21T01:58:50Z</time></trkpt>
<trkpt lat="37.48401068" lon="127.18172007"><ele>419.03607177734375</ele><time>2025-02-21T01:59:00Z</time></trkpt>
<trkpt lat="37.48403051" lon="127.18160972"><ele>419.39434814453125</ele><time>2025-02-21T01:59:11Z</time></trkpt>
<trkpt lat="37.48404076" lon="127.18149366"><ele>420.87261962890625</ele><time>2025-02-21T01:59:27Z</time></trkpt>
<trkpt lat="37.48405983" lon="127.18138066"><ele>422.3228759765625</ele><time>2025-02-21T01:59:41Z</time></trkpt>
<trkpt lat="37.48402173" lon="127.18127137"><ele>422.6900634765625</ele><time>2025-02-21T01:59:52Z</time></trkpt>
<trkpt lat="37.4840235" lon="127.18114798"><ele>424.91363525390625</ele><time>2025-02-21T02:00:06Z</time></trkpt>
<trkpt lat="37.48402099" lon="127.18103176"><ele>424.6458740234375</ele><time>2025-02-21T02:00:15Z</time></trkpt>
<trkpt lat="37.48405322" lon="127.18091777"><ele>425.2657470703125</ele><time>2025-02-21T02:00:25Z</time></trkpt>
<trkpt lat="37.4840911" lon="127.18080643"><ele>425.432373046875</ele><time>2025-02-21T02:00:35Z</time></trkpt>
<trkpt lat="37.48414455" lon="127.18070706"><ele>425.94354248046875</ele><time>2025-02-21T02:00:48Z</time></trkpt>
<trkpt lat="37.48420944" lon="127.18061857"><ele>425.31573486328125</ele><time>2025-02-21T02:01:00Z</time></trkpt>
<trkpt lat="37.48426925" lon="127.18052341"><ele>424.98382568359375</ele><time>2025-02-21T02:01:22Z</time></trkpt>
<trkpt lat="37.48432582" lon="127.1804329"><ele>426.0517578125</ele><time>2025-02-21T02:01:31Z</time></trkpt>
<trkpt lat="37.48439186" lon="127.18035044"><ele>427.55517578125</ele><time>2025-02-21T02:01:40Z</time></trkpt>
<trkpt lat="37.48444347" lon="127.18025401"><ele>429.182373046875</ele><time>2025-02-21T02:01:49Z</time></trkpt>
<trkpt lat="37.484509" lon="127.18016505"><ele>430.37548828125</ele><time>2025-02-21T02:02:00Z</time></trkpt>
<trkpt lat="37.48455807" lon="127.1800616"><ele>431.7908935546875</ele><time>2025-02-21T02:02:10Z</time></trkpt>
<trkpt lat="37.48459558" lon="127.17995382"><ele>433.369873046875</ele><time>2025-02-21T02:02:19Z</time></trkpt>
<trkpt lat="37.48463189" lon="127.17984076"><ele>434.2958984375</ele><time>2025-02-21T02:02:29Z</time></trkpt>
<trkpt lat="37.48467821" lon="127.17973047"><ele>435.4451904296875</ele><time>2025-02-21T02:02:40Z</time></trkpt>
<trkpt lat="37.48469054" lon="127.17961498"><ele>436.891357421875</ele><time>2025-02-21T02:02:51Z</time></trkpt>
<trkpt lat="37.48469065" lon="127.1794965"><ele>438.4093017578125</ele><time>2025-02-21T02:03:02Z</time></trkpt>
<trkpt lat="37.48470392" lon="127.17937803"><ele>439.2156982421875</ele><time>2025-02-21T02:03:13Z</time></trkpt>
<trkpt lat="37.48470891" lon="127.17925588"><ele>440.7305908203125</ele><time>2025-02-21T02:03:24Z</time></trkpt>
<trkpt lat="37.48471597" lon="127.17913953"><ele>441.767822265625</ele><time>2025-02-21T02:03:35Z</time></trkpt>
<trkpt lat="37.4847326" lon="127.17902164"><ele>441.79693603515625</ele><time>2025-02-21T02:03:50Z</time></trkpt>
<trkpt lat="37.48472271" lon="127.17890399"><ele>443.44781494140625</ele><time>2025-02-21T02:04:08Z</time></trkpt>
<trkpt lat="37.48470961" lon="127.17878555"><ele>445.6195068359375</ele><time>2025-02-21T02:04:26Z</time></trkpt>
<trkpt lat="37.48466745" lon="127.17868123"><ele>444.674560546875</ele><time>2025-02-21T02:04:36Z</time></trkpt>
<trkpt lat="37.48461636" lon="127.1785855"><ele>445.158203125</ele><time>2025-02-21T02:04:44Z</time></trkpt>
<trkpt lat="37.48458432" lon="127.17847317"><ele>445.61981201171875</ele><time>2025-02-21T02:04:53Z</time></trkpt>
<trkpt lat="37.4845859" lon="127.17835943"><ele>446.6614990234375</ele><time>2025-02-21T02:05:02Z</time></trkpt>
<trkpt lat="37.484596" lon="127.17824265"><ele>447.0997314453125</ele><time>2025-02-21T02:05:16Z</time></trkpt>
<trkpt lat="37.48461346" lon="127.17812367"><ele>448.1092529296875</ele><time>2025-02-21T02:05:35Z</time></trkpt>
<trkpt lat="37.48463895" lon="127.17800795"><ele>449.5767822265625</ele><time>2025-02-21T02:05:44Z</time></trkpt>
<trkpt lat="37.48464332" lon="127.17789449"><ele>450.4862060546875</ele><time>2025-02-21T02:05:54Z</time></trkpt>
<trkpt lat="37.48466248" lon="127.17778207"><ele>452.1148681640625</ele><time>2025-02-21T02:06:09Z</time></trkpt>
<trkpt lat="37.48466408" lon="127.1776602"><ele>453.83642578125</ele><time>2025-02-21T02:06:19Z</time></trkpt>
<trkpt lat="37.48468902" lon="127.17754479"><ele>455.51220703125</ele><time>2025-02-21T02:06:34Z</time></trkpt>
<trkpt lat="37.4846832" lon="127.17742604"><ele>456.9161376953125</ele><time>2025-02-21T02:06:44Z</time></trkpt>
<trkpt lat="37.48466155" lon="127.17730996"><ele>458.31072998046875</ele><time>2025-02-21T02:07:03Z</time></trkpt>
<trkpt lat="37.48466608" lon="127.17719451"><ele>460.0400390625</ele><time>2025-02-21T02:07:13Z</time></trkpt>
<trkpt lat="37.48464707" lon="127.17707715"><ele>460.94775390625</ele><time>2025-02-21T02:07:24Z</time></trkpt>
<trkpt lat="37.48462234" lon="127.17695992"><ele>462.680908203125</ele><time>2025-02-21T02:07:35Z</time></trkpt>
<trkpt lat="37.48459793" lon="127.17685105"><ele>462.6328125</ele><time>2025-02-21T02:07:48Z</time></trkpt>
<trkpt lat="37.48461033" lon="127.1767323"><ele>464.53656005859375</ele><time>2025-02-21T02:08:02Z</time></trkpt>
<trkpt lat="37.48460555" lon="127.17661843"><ele>465.6729736328125</ele><time>2025-02-21T02:08:11Z</time></trkpt>
<trkpt lat="37.48460928" lon="127.17649532"><ele>465.5440673828125</ele><time>2025-02-21T02:08:20Z</time></trkpt>
<trkpt lat="37.48459848" lon="127.17637507"><ele>467.319580078125</ele><time>2025-02-21T02:08:30Z</time></trkpt>
<trkpt lat="37.48456653" lon="127.17625551"><ele>468.9384765625</ele><time>2025-02-21T02:08:43Z</time></trkpt>
<trkpt lat="37.48462607" lon="127.17615934"><ele>471.080810546875</ele><time>2025-02-21T02:09:36Z</time></trkpt>
<trkpt lat="37.48468493" lon="127.17606669"><ele>469.2388916015625</ele><time>2025-02-21T02:09:48Z</time></trkpt>
<trkpt lat="37.48477787" lon="127.17601533"><ele>468.536376953125</ele><time>2025-02-21T02:10:11Z</time></trkpt>
<trkpt lat="37.48487389" lon="127.17599424"><ele>470.724853515625</ele><time>2025-02-21T02:10:20Z</time></trkpt>
<trkpt lat="37.48496472" lon="127.17595473"><ele>473.4022216796875</ele><time>2025-02-21T02:10:31Z</time></trkpt>
<trkpt lat="37.48502989" lon="127.17587607"><ele>475.836181640625</ele><time>2025-02-21T02:10:43Z</time></trkpt>
<trkpt lat="37.48511516" lon="127.17583851"><ele>477.02490234375</ele><time>2025-02-21T02:10:54Z</time></trkpt>
<trkpt lat="37.48520596" lon="127.1758463"><ele>479.59765625</ele><time>2025-02-21T02:11:07Z</time></trkpt>
</trkseg>
<trkseg>
<trkpt lat="37.48520596" lon="127.1758463"><ele>479.598</ele><time>2025-02-21T02:16:45Z</time></trkpt>
<trkpt lat="37.48510995" lon="127.17585753"><ele>477.5301513671875</ele><time>2025-02-21T02:16:45Z</time></trkpt>
<trkpt lat="37.48502231" lon="127.17589915"><ele>477.52490234375</ele><time>2025-02-21T02:16:54Z</time></trkpt>
<trkpt lat="37.48495054" lon="127.17597029"><ele>474.8194580078125</ele><time>2025-02-21T02:17:05Z</time></trkpt>
<trkpt lat="37.48486551" lon="127.17601397"><ele>470.28631591796875</ele><time>2025-02-21T02:17:14Z</time></trkpt>
<trkpt lat="37.48477196" lon="127.17602105"><ele>470.30029296875</ele><time>2025-02-21T02:17:22Z</time></trkpt>
<trkpt lat="37.48476335" lon="127.17602144"><ele>470.110595703125</ele><time>2025-02-21T02:17:23Z</time></trkpt>
<trkpt lat="37.48475417" lon="127.17602568"><ele>470.2237548828125</ele><time>2025-02-21T02:17:24Z</time></trkpt>
<trkpt lat="37.484657" lon="127.17605334"><ele>468.4385986328125</ele><time>2025-02-21T02:17:34Z</time></trkpt>
<trkpt lat="37.48463639" lon="127.17616715"><ele>468.9432373046875</ele><time>2025-02-21T02:18:05Z</time></trkpt>
<trkpt lat="37.48456798" lon="127.17624213"><ele>467.42138671875</ele><time>2025-02-21T02:18:13Z</time></trkpt>
<trkpt lat="37.4844784" lon="127.1762035"><ele>469.139892578125</ele><time>2025-02-21T02:18:22Z</time></trkpt>
<trkpt lat="37.48438418" lon="127.17618811"><ele>471.147705078125</ele><time>2025-02-21T02:18:30Z</time></trkpt>
<trkpt lat="37.48428835" lon="127.17618601"><ele>473.03125</ele><time>2025-02-21T02:18:37Z</time></trkpt>
<trkpt lat="37.48419701" lon="127.17619339"><ele>473.45648193359375</ele><time>2025-02-21T02:18:44Z</time></trkpt>
<trkpt lat="37.48410347" lon="127.17619992"><ele>474.0963134765625</ele><time>2025-02-21T02:18:52Z</time></trkpt>
<trkpt lat="37.4840025" lon="127.17620032"><ele>475.07763671875</ele><time>2025-02-21T02:19:00Z</time></trkpt>
<trkpt lat="37.48390272" lon="127.17621292"><ele>475.71246337890625</ele><time>2025-02-21T02:19:07Z</time></trkpt>
<trkpt lat="37.48380851" lon="127.17622445"><ele>476.3626708984375</ele><time>2025-02-21T02:19:15Z</time></trkpt>
<trkpt lat="37.4837333" lon="127.1762893"><ele>476.3172607421875</ele><time>2025-02-21T02:19:34Z</time></trkpt>
<trkpt lat="37.48364887" lon="127.17633831"><ele>476.2325439453125</ele><time>2025-02-21T02:19:42Z</time></trkpt>
<trkpt lat="37.4835506" lon="127.17631057"><ele>475.8486328125</ele><time>2025-02-21T02:19:50Z</time></trkpt>
<trkpt lat="37.4834766" lon="127.17624563"><ele>475.68414306640625</ele><time>2025-02-21T02:19:57Z</time></trkpt>
<trkpt lat="37.48337596" lon="127.17623011"><ele>476.93902587890625</ele><time>2025-02-21T02:20:06Z</time></trkpt>
<trkpt lat="37.48335302" lon="127.17611941"><ele>480.3978271484375</ele><time>2025-02-21T02:20:12Z</time></trkpt>
<trkpt lat="37.48326501" lon="127.17616076"><ele>476.840576171875</ele><time>2025-02-21T02:20:39Z</time></trkpt>
<trkpt lat="37.48318683" lon="127.17608645"><ele>478.1053466796875</ele><time>2025-02-21T02:20:47Z</time></trkpt>
<trkpt lat="37.48310614" lon="127.17601104"><ele>478.86669921875</ele><time>2025-02-21T02:20:55Z</time></trkpt>
<trkpt lat="37.48301528" lon="127.17595941"><ele>480.3883056640625</ele><time>2025-02-21T02:21:03Z</time></trkpt>
<trkpt lat="37.48292681" lon="127.17590864"><ele>481.568603515625</ele><time>2025-02-21T02:21:11Z</time></trkpt>
<trkpt lat="37.48283173" lon="127.17589209"><ele>482.2001953125</ele><time>2025-02-21T02:21:19Z</time></trkpt>
<trkpt lat="37.48273242" lon="127.17588859"><ele>484.191650390625</ele><time>2025-02-21T02:21:28Z</time></trkpt>
<trkpt lat="37.48264026" lon="127.17588732"><ele>484.0712890625</ele><time>2025-02-21T02:21:42Z</time></trkpt>
<trkpt lat="37.48254462" lon="127.17588249"><ele>487.0540771484375</ele><time>2025-02-21T02:21:50Z</time></trkpt>
<trkpt lat="37.48244913" lon="127.17588645"><ele>488.18096923828125</ele><time>2025-02-21T02:22:01Z</time></trkpt>
<trkpt lat="37.48251035" lon="127.17598269"><ele>487.9317626953125</ele><time>2025-02-21T02:22:14Z</time></trkpt>
<trkpt lat="37.4826064" lon="127.17600717"><ele>490.650146484375</ele><time>2025-02-21T02:22:22Z</time></trkpt>
<trkpt lat="37.48269508" lon="127.17603088"><ele>488.86474609375</ele><time>2025-02-21T02:22:36Z</time></trkpt>
<trkpt lat="37.48259815" lon="127.17601822"><ele>489.46368408203125</ele><time>2025-02-21T02:23:34Z</time></trkpt>
<trkpt lat="37.48249797" lon="127.1759905"><ele>487.6900634765625</ele><time>2025-02-21T02:23:43Z</time></trkpt>
<trkpt lat="37.48244042" lon="127.17588645"><ele>487.2611083984375</ele><time>2025-02-21T02:23:51Z</time></trkpt>
<trkpt lat="37.48234759" lon="127.17584485"><ele>488.3858642578125</ele><time>2025-02-21T02:24:03Z</time></trkpt>
<trkpt lat="37.48224935" lon="127.17584879"><ele>489.67578125</ele><time>2025-02-21T02:24:11Z</time></trkpt>
<trkpt lat="37.48215642" lon="127.17589551"><ele>491.7215576171875</ele><time>2025-02-21T02:24:19Z</time></trkpt>
<trkpt lat="37.48206836" lon="127.17592621"><ele>493.1173095703125</ele><time>2025-02-21T02:24:42Z</time></trkpt>
<trkpt lat="37.48197688" lon="127.17596981"><ele>493.4053955078125</ele><time>2025-02-21T02:24:49Z</time></trkpt>
<trkpt lat="37.4818827" lon="127.17600444"><ele>493.7352294921875</ele><time>2025-02-21T02:24:56Z</time></trkpt>
<trkpt lat="37.48178845" lon="127.17603802"><ele>493.5982666015625</ele><time>2025-02-21T02:25:03Z</time></trkpt>
<trkpt lat="37.48169258" lon="127.17607268"><ele>493.7646484375</ele><time>2025-02-21T02:25:10Z</time></trkpt>
<trkpt lat="37.48159993" lon="127.17607149"><ele>493.8905029296875</ele><time>2025-02-21T02:25:17Z</time></trkpt>
<trkpt lat="37.4815156" lon="127.17602461"><ele>494.64361572265625</ele><time>2025-02-21T02:25:36Z</time></trkpt>
<trkpt lat="37.48141938" lon="127.17600041"><ele>494.268310546875</ele><time>2025-02-21T02:25:43Z</time></trkpt>
<trkpt lat="37.4813259" lon="127.17600075"><ele>494.4473876953125</ele><time>2025-02-21T02:25:50Z</time></trkpt>
<trkpt lat="37.48122431" lon="127.17600976"><ele>494.5125732421875</ele><time>2025-02-21T02:25:57Z</time></trkpt>
<trkpt lat="37.48115635" lon="127.17608869"><ele>493.73974609375</ele><time>2025-02-21T02:26:04Z</time></trkpt>
<trkpt lat="37.48108447" lon="127.17617583"><ele>493.546875</ele><time>2025-02-21T02:26:11Z</time></trkpt>
<trkpt lat="37.48100014" lon="127.17622835"><ele>494.1798095703125</ele><time>2025-02-21T02:26:18Z</time></trkpt>
<trkpt lat="37.48090754" lon="127.17626229"><ele>495.282958984375</ele><time>2025-02-21T02:26:26Z</time></trkpt>
<trkpt lat="37.48081311" lon="127.17629677"><ele>496.48779296875</ele><time>2025-02-21T02:26:42Z</time></trkpt>
<trkpt lat="37.48071655" lon="127.17631264"><ele>497.83624267578125</ele><time>2025-02-21T02:26:50Z</time></trkpt>
<trkpt lat="37.48061664" lon="127.17630905"><ele>500.16455078125</ele><time>2025-02-21T02:26:59Z</time></trkpt>
<trkpt lat="37.48053021" lon="127.17627604"><ele>501.5887451171875</ele><time>2025-02-21T02:27:07Z</time></trkpt>
<trkpt lat="37.48046144" lon="127.1761953"><ele>503.241943359375</ele><time>2025-02-21T02:27:16Z</time></trkpt>
<trkpt lat="37.48042857" lon="127.17608547"><ele>505.4163818359375</ele><time>2025-02-21T02:27:34Z</time></trkpt>
<trkpt lat="37.48037294" lon="127.17598536"><ele>507.22265625</ele><time>2025-02-21T02:27:50Z</time></trkpt>
<trkpt lat="37.48029192" lon="127.17592601"><ele>508.710693359375</ele><time>2025-02-21T02:28:05Z</time></trkpt>
<trkpt lat="37.48019813" lon="127.17594818"><ele>508.8206787109375</ele><time>2025-02-21T02:28:15Z</time></trkpt>
<trkpt lat="37.48011334" lon="127.17599426"><ele>512.3563842773438</ele><time>2025-02-21T02:28:28Z</time></trkpt>
<trkpt lat="37.48005582" lon="127.17608558"><ele>512.4737548828125</ele><time>2025-02-21T02:28:39Z</time></trkpt>
<trkpt lat="37.47996633" lon="127.17611694"><ele>513.5584716796875</ele><time>2025-02-21T02:28:48Z</time></trkpt>
<trkpt lat="37.47988038" lon="127.17608072"><ele>515.4454345703125</ele><time>2025-02-21T02:29:11Z</time></trkpt>
<trkpt lat="37.47979704" lon="127.17612463"><ele>514.6602783203125</ele><time>2025-02-21T02:29:20Z</time></trkpt>
<trkpt lat="37.47973868" lon="127.17621529"><ele>514.2372436523438</ele><time>2025-02-21T02:30:09Z</time></trkpt>
<trkpt lat="37.47973755" lon="127.17633118"><ele>515.9121704101562</ele><time>2025-02-21T02:30:19Z</time></trkpt>
<trkpt lat="37.47970829" lon="127.17644382"><ele>517.1024169921875</ele><time>2025-02-21T02:30:29Z</time></trkpt>
<trkpt lat="37.47977286" lon="127.17652812"><ele>518.2667846679688</ele><time>2025-02-21T02:32:20Z</time></trkpt>
<trkpt lat="37.47981348" lon="127.17662976"><ele>519.718505859375</ele><time>2025-02-21T02:32:50Z</time></trkpt>
</trkseg>
<trkseg>
<trkpt lat="37.47981348" lon="127.17662976"><ele>519.719</ele><time>2025-02-21T02:47:20Z</time></trkpt>
<trkpt lat="37.4796719" lon="127.17645439"><ele>518.0142211914062</ele><time>2025-02-21T02:47:20Z</time></trkpt>
<trkpt lat="37.47976432" lon="127.17647621"><ele>519.1278686523438</ele><time>2025-02-21T02:47:38Z</time></trkpt>
<trkpt lat="37.479705" lon="127.17637779"><ele>518.88671875</ele><time>2025-02-21T02:48:03Z</time></trkpt>
<trkpt lat="37.47973001" lon="127.17626909"><ele>516.0372924804688</ele><time>2025-02-21T02:48:59Z</time></trkpt>
<trkpt lat="37.47972513" lon="127.17615196"><ele>515.4285278320312</ele><time>2025-02-21T02:49:11Z</time></trkpt>
<trkpt lat="37.47981247" lon="127.1761112"><ele>514.9863891601562</ele><time>2025-02-21T02:49:21Z</time></trkpt>
<trkpt lat="37.47982696" lon="127.17610968"><ele>515.3216552734375</ele><time>2025-02-21T02:49:23Z</time></trkpt>
<trkpt lat="37.47983614" lon="127.17610936"><ele>515.005859375</ele><time>2025-02-21T02:49:24Z</time></trkpt>
<trkpt lat="37.47993572" lon="127.17610239"><ele>513.552001953125</ele><time>2025-02-21T02:49:33Z</time></trkpt>
<trkpt lat="37.48003393" lon="127.17608528"><ele>513.1302490234375</ele><time>2025-02-21T02:49:43Z</time></trkpt>
<trkpt lat="37.48007923" lon="127.1759824"><ele>512.3678588867188</ele><time>2025-02-21T02:50:03Z</time></trkpt>
<trkpt lat="37.48016844" lon="127.17593536"><ele>510.03997802734375</ele><time>2025-02-21T02:50:27Z</time></trkpt>
<trkpt lat="37.48012492" lon="127.17582895"><ele>506.757568359375</ele><time>2025-02-21T02:50:45Z</time></trkpt>
<trkpt lat="37.4800276" lon="127.17581257"><ele>507.4859619140625</ele><time>2025-02-21T02:50:55Z</time></trkpt>
<trkpt lat="37.47993855" lon="127.17579338"><ele>507.85211181640625</ele><time>2025-02-21T02:51:15Z</time></trkpt>
<trkpt lat="37.47986074" lon="127.17572948"><ele>506.7218017578125</ele><time>2025-02-21T02:51:29Z</time></trkpt>
<trkpt lat="37.47978208" lon="127.17566854"><ele>505.39501953125</ele><time>2025-02-21T02:51:40Z</time></trkpt>
<trkpt lat="37.47969966" lon="127.17562114"><ele>505.0029296875</ele><time>2025-02-21T02:53:30Z</time></trkpt>
<trkpt lat="37.47962449" lon="127.17553828"><ele>502.28125</ele><time>2025-02-21T02:53:39Z</time></trkpt>
<trkpt lat="37.47952901" lon="127.17552152"><ele>500.4512939453125</ele><time>2025-02-21T02:53:47Z</time></trkpt>
<trkpt lat="37.47942964" lon="127.17552561"><ele>498.78515625</ele><time>2025-02-21T02:53:56Z</time></trkpt>
<trkpt lat="37.47933604" lon="127.17555525"><ele>496.80548095703125</ele><time>2025-02-21T02:54:09Z</time></trkpt>
<trkpt lat="37.47924487" lon="127.17558158"><ele>495.8734130859375</ele><time>2025-02-21T02:54:17Z</time></trkpt>
<trkpt lat="37.47916149" lon="127.17564248"><ele>494.35577392578125</ele><time>2025-02-21T02:54:32Z</time></trkpt>
<trkpt lat="37.47910281" lon="127.17573143"><ele>494.65838623046875</ele><time>2025-02-21T02:54:40Z</time></trkpt>
<trkpt lat="37.47916377" lon="127.17564593"><ele>495.86065673828125</ele><time>2025-02-21T02:55:16Z</time></trkpt>
<trkpt lat="37.47910443" lon="127.17573214"><ele>493.49102783203125</ele><time>2025-02-21T02:55:32Z</time></trkpt>
<trkpt lat="37.47904658" lon="127.17582431"><ele>494.0006103515625</ele><time>2025-02-21T02:55:41Z</time></trkpt>
<trkpt lat="37.47897534" lon="127.17591529"><ele>494.4715576171875</ele><time>2025-02-21T02:55:49Z</time></trkpt>
<trkpt lat="37.47893097" lon="127.17601589"><ele>493.88653564453125</ele><time>2025-02-21T02:55:56Z</time></trkpt>
<trkpt lat="37.47889823" lon="127.17612156"><ele>494.07470703125</ele><time>2025-02-21T02:56:04Z</time></trkpt>
<trkpt lat="37.47889853" lon="127.17623781"><ele>493.46142578125</ele><time>2025-02-21T02:56:13Z</time></trkpt>
<trkpt lat="37.47890866" lon="127.17636436"><ele>491.1475830078125</ele><time>2025-02-21T02:56:24Z</time></trkpt>
<trkpt lat="37.47888736" lon="127.17648771"><ele>488.76904296875</ele><time>2025-02-21T02:56:34Z</time></trkpt>
<trkpt lat="37.47888415" lon="127.1766127"><ele>487.3828125</ele><time>2025-02-21T02:56:42Z</time></trkpt>
<trkpt lat="37.47884487" lon="127.17671634"><ele>488.0555419921875</ele><time>2025-02-21T02:56:50Z</time></trkpt>
<trkpt lat="37.47881632" lon="127.17683331"><ele>487.548583984375</ele><time>2025-02-21T02:56:59Z</time></trkpt>
<trkpt lat="37.47875939" lon="127.1769248"><ele>488.3294677734375</ele><time>2025-02-21T02:57:06Z</time></trkpt>
<trkpt lat="37.47870762" lon="127.17702574"><ele>485.97454833984375</ele><time>2025-02-21T02:57:14Z</time></trkpt>
<trkpt lat="37.47864701" lon="127.1771155"><ele>484.558349609375</ele><time>2025-02-21T02:57:21Z</time></trkpt>
<trkpt lat="37.47858696" lon="127.17721034"><ele>484.4642333984375</ele><time>2025-02-21T02:57:28Z</time></trkpt>
<trkpt lat="37.478495" lon="127.17723906"><ele>482.8985595703125</ele><time>2025-02-21T02:57:37Z</time></trkpt>
<trkpt lat="37.47843191" lon="127.17714301"><ele>481.4921875</ele><time>2025-02-21T02:57:46Z</time></trkpt>
<trkpt lat="37.47844633" lon="127.17702718"><ele>479.60455322265625</ele><time>2025-02-21T02:57:54Z</time></trkpt>
<trkpt lat="37.47847386" lon="127.17691214"><ele>478.72027587890625</ele><time>2025-02-21T02:58:03Z</time></trkpt>
<trkpt lat="37.47847413" lon="127.17679358"><ele>477.13751220703125</ele><time>2025-02-21T02:58:13Z</time></trkpt>
<trkpt lat="37.47846423" lon="127.17667499"><ele>477.97528076171875</ele><time>2025-02-21T02:58:24Z</time></trkpt>
<trkpt lat="37.47843875" lon="127.17656584"><ele>476.372802734375</ele><time>2025-02-21T02:58:34Z</time></trkpt>
<trkpt lat="37.47838635" lon="127.1764731"><ele>474.7711181640625</ele><time>2025-02-21T02:58:43Z</time></trkpt>
<trkpt lat="37.47835043" lon="127.17635595"><ele>473.27374267578125</ele><time>2025-02-21T02:59:04Z</time></trkpt>
<trkpt lat="37.47829958" lon="127.17625206"><ele>472.921630859375</ele><time>2025-02-21T02:59:14Z</time></trkpt>
<trkpt lat="37.47824083" lon="127.17616097"><ele>470.2666015625</ele><time>2025-02-21T02:59:24Z</time></trkpt>
<trkpt lat="37.47819231" lon="127.17605511"><ele>467.2176513671875</ele><time>2025-02-21T02:59:32Z</time></trkpt>
<trkpt lat="37.47813289" lon="127.17595959"><ele>467.1207275390625</ele><time>2025-02-21T02:59:39Z</time></trkpt>
<trkpt lat="37.47809509" lon="127.17584981"><ele>465.721923828125</ele><time>2025-02-21T02:59:53Z</time></trkpt>
<trkpt lat="37.47804572" lon="127.17574827"><ele>465.24847412109375</ele><time>2025-02-21T03:00:03Z</time></trkpt>
<trkpt lat="37.47799988" lon="127.17563735"><ele>465.03857421875</ele><time>2025-02-21T03:00:12Z</time></trkpt>
<trkpt lat="37.47794334" lon="127.17553511"><ele>464.54559326171875</ele><time>2025-02-21T03:00:21Z</time></trkpt>
<trkpt lat="37.47787703" lon="127.1754525"><ele>463.53094482421875</ele><time>2025-02-21T03:00:30Z</time></trkpt>
<trkpt lat="37.47779083" lon="127.17539356"><ele>462.78253173828125</ele><time>2025-02-21T03:00:41Z</time></trkpt>
<trkpt lat="37.47771191" lon="127.1754681"><ele>462.802978515625</ele><time>2025-02-21T03:00:52Z</time></trkpt>
<trkpt lat="37.47771578" lon="127.17558628"><ele>462.47882080078125</ele><time>2025-02-21T03:01:09Z</time></trkpt>
<trkpt lat="37.47776635" lon="127.17568433"><ele>462.2158203125</ele><time>2025-02-21T03:01:20Z</time></trkpt>
<trkpt lat="37.47784221" lon="127.1757687"><ele>461.3951416015625</ele><time>2025-02-21T03:01:29Z</time></trkpt>
<trkpt lat="37.4779092" lon="127.17584567"><ele>462.64752197265625</ele><time>2025-02-21T03:01:38Z</time></trkpt>
<trkpt lat="37.47797614" lon="127.17592162"><ele>463.8408203125</ele><time>2025-02-21T03:01:47Z</time></trkpt>
<trkpt lat="37.47800766" lon="127.17604056"><ele>462.3701171875</ele><time>2025-02-21T03:01:56Z</time></trkpt>
<trkpt lat="37.47801492" lon="127.17616807"><ele>462.2056884765625</ele><time>2025-02-21T03:02:05Z</time></trkpt>
<trkpt lat="37.47800846" lon="127.17628602"><ele>460.9261474609375</ele><time>2025-02-21T03:02:13Z</time></trkpt>
<trkpt lat="37.47800646" lon="127.17640056"><ele>460.44921875</ele><time>2025-02-21T03:02:22Z</time></trkpt>
<trkpt lat="37.47800497" lon="127.17651582"><ele>459.62908935546875</ele><time>2025-02-21T03:02:31Z</time></trkpt>
<trkpt lat="37.47798009" lon="127.17663027"><ele>459.8375244140625</ele><time>2025-02-21T03:02:40Z</time></trkpt>
<trkpt lat="37.47793842" lon="127.17673549"><ele>459.1773681640625</ele><time>2025-02-21T03:02:50Z</time></trkpt>
<trkpt lat="37.47788901" lon="127.17683819"><ele>459.34149169921875</ele><time>2025-02-21T03:03:01Z</time></trkpt>
<trkpt lat="37.47781918" lon="127.176917"><ele>458.4312744140625</ele><time>2025-02-21T03:03:15Z</time></trkpt>
<trkpt lat="37.47775349" lon="127.17699796"><ele>455.989013671875</ele><time>2025-02-21T03:03:26Z</time></trkpt>
<trkpt lat="37.477686" lon="127.177075"><ele>456.43438720703125</ele><time>2025-02-21T03:03:36Z</time></trkpt>
<trkpt lat="37.4776531" lon="127.17718785"><ele>455.3001708984375</ele><time>2025-02-21T03:03:46Z</time></trkpt>
<trkpt lat="37.47762776" lon="127.17730108"><ele>455.105224609375</ele><time>2025-02-21T03:03:55Z</time></trkpt>
<trkpt lat="37.47764021" lon="127.17741323"><ele>453.0931396484375</ele><time>2025-02-21T03:04:04Z</time></trkpt>
<trkpt lat="37.47770535" lon="127.17750127"><ele>450.42608642578125</ele><time>2025-02-21T03:04:13Z</time></trkpt>
<trkpt lat="37.47777697" lon="127.17757642"><ele>448.713623046875</ele><time>2025-02-21T03:04:22Z</time></trkpt>
<trkpt lat="37.47784707" lon="127.17765789"><ele>449.039794921875</ele><time>2025-02-21T03:04:32Z</time></trkpt>
<trkpt lat="37.47789476" lon="127.17776879"><ele>448.8785400390625</ele><time>2025-02-21T03:04:48Z</time></trkpt>
<trkpt lat="37.47783852" lon="127.17787033"><ele>445.5396728515625</ele><time>2025-02-21T03:05:00Z</time></trkpt>
<trkpt lat="37.47774415" lon="127.17786951"><ele>443.7991943359375</ele><time>2025-02-21T03:05:10Z</time></trkpt>
<trkpt lat="37.47766458" lon="127.17780686"><ele>443.0396728515625</ele><time>2025-02-21T03:05:19Z</time></trkpt>
<trkpt lat="37.47759782" lon="127.17772927"><ele>443.2828369140625</ele><time>2025-02-21T03:05:28Z</time></trkpt>
<trkpt lat="37.47755228" lon="127.17762826"><ele>443.51568603515625</ele><time>2025-02-21T03:05:37Z</time></trkpt>
<trkpt lat="37.47751873" lon="127.17752205"><ele>444.508056640625</ele><time>2025-02-21T03:05:46Z</time></trkpt>
<trkpt lat="37.47750172" lon="127.17741016"><ele>444.29638671875</ele><time>2025-02-21T03:05:54Z</time></trkpt>
<trkpt lat="37.47748247" lon="127.17729034"><ele>444.24755859375</ele><time>2025-02-21T03:06:04Z</time></trkpt>
<trkpt lat="37.4774553" lon="127.17717824"><ele>443.37213134765625</ele><time>2025-02-21T03:06:13Z</time></trkpt>
<trkpt lat="37.47742854" lon="127.17706891"><ele>442.8328857421875</ele><time>2025-02-21T03:06:21Z</time></trkpt>
<trkpt lat="37.47741583" lon="127.17694552"><ele>441.5340576171875</ele><time>2025-02-21T03:06:30Z</time></trkpt>
<trkpt lat="37.47738693" lon="127.17682985"><ele>441.2340087890625</ele><time>2025-02-21T03:06:39Z</time></trkpt>
<trkpt lat="37.47733209" lon="127.17672915"><ele>440.6207275390625</ele><time>2025-02-21T03:06:50Z</time></trkpt>
<trkpt lat="37.47723459" lon="127.17670961"><ele>439.960205078125</ele><time>2025-02-21T03:07:01Z</time></trkpt>
<trkpt lat="37.47714978" lon="127.17674821"><ele>441.0032958984375</ele><time>2025-02-21T03:07:11Z</time></trkpt>
<trkpt lat="37.47706547" lon="127.17680537"><ele>443.22491455078125</ele><time>2025-02-21T03:07:22Z</time></trkpt>
<trkpt lat="37.47698668" lon="127.17687752"><ele>442.3800048828125</ele><time>2025-02-21T03:07:33Z</time></trkpt>
<trkpt lat="37.47693088" lon="127.17697258"><ele>440.950927734375</ele><time>2025-02-21T03:07:44Z</time></trkpt>
<trkpt lat="37.47686905" lon="127.17706052"><ele>438.14971923828125</ele><time>2025-02-21T03:07:56Z</time></trkpt>
<trkpt lat="37.47679233" lon="127.17712557"><ele>435.08563232421875</ele><time>2025-02-21T03:08:07Z</time></trkpt>
<trkpt lat="37.47672178" lon="127.17720388"><ele>432.566162109375</ele><time>2025-02-21T03:08:17Z</time></trkpt>
<trkpt lat="37.47665059" lon="127.17727653"><ele>431.815185546875</ele><time>2025-02-21T03:08:28Z</time></trkpt>
<trkpt lat="37.47659151" lon="127.1773638"><ele>429.3934326171875</ele><time>2025-02-21T03:08:41Z</time></trkpt>
<trkpt lat="37.476564" lon="127.1774748"><ele>431.294189453125</ele><time>2025-02-21T03:09:18Z</time></trkpt>
<trkpt lat="37.47648494" lon="127.17755317"><ele>430.843994140625</ele><time>2025-02-21T03:09:25Z</time></trkpt>
<trkpt lat="37.47645398" lon="127.17765968"><ele>430.0557861328125</ele><time>2025-02-21T03:09:32Z</time></trkpt>
<trkpt lat="37.47641393" lon="127.17777272"><ele>429.36370849609375</ele><time>2025-02-21T03:09:40Z</time></trkpt>
<trkpt lat="37.47636719" lon="127.17788034"><ele>428.067138671875</ele><time>2025-02-21T03:09:49Z</time></trkpt>
<trkpt lat="37.4763222" lon="127.17798501"><ele>426.510009765625</ele><time>2025-02-21T03:09:59Z</time></trkpt>
<trkpt lat="37.47628087" lon="127.17809818"><ele>425.5687255859375</ele><time>2025-02-21T03:10:09Z</time></trkpt>
<trkpt lat="37.47626464" lon="127.17821159"><ele>423.30767822265625</ele><time>2025-02-21T03:10:19Z</time></trkpt>
<trkpt lat="37.4762606" lon="127.17832931"><ele>422.63916015625</ele><time>2025-02-21T03:10:29Z</time></trkpt>
<trkpt lat="37.47626114" lon="127.17844491"><ele>421.902099609375</ele><time>2025-02-21T03:10:38Z</time></trkpt>
<trkpt lat="37.4762721" lon="127.17857025"><ele>420.31964111328125</ele><time>2025-02-21T03:10:47Z</time></trkpt>
<trkpt lat="37.47628583" lon="127.17869403"><ele>419.858154296875</ele><time>2025-02-21T03:10:56Z</time></trkpt>
<trkpt lat="37.4762955" lon="127.17881631"><ele>419.990966796875</ele><time>2025-02-21T03:11:06Z</time></trkpt>
<trkpt lat="37.47624821" lon="127.17891922"><ele>418.15093994140625</ele><time>2025-02-21T03:11:16Z</time></trkpt>
<trkpt lat="37.47619332" lon="127.17901906"><ele>415.6903076171875</ele><time>2025-02-21T03:11:27Z</time></trkpt>
<trkpt lat="37.47612936" lon="127.17911298"><ele>414.7105712890625</ele><time>2025-02-21T03:11:37Z</time></trkpt>
<trkpt lat="37.47607354" lon="127.17920841"><ele>413.362548828125</ele><time>2025-02-21T03:11:48Z</time></trkpt>
<trkpt lat="37.47601371" lon="127.1793035"><ele>414.0560302734375</ele><time>2025-02-21T03:11:59Z</time></trkpt>
<trkpt lat="37.47594541" lon="127.17939325"><ele>412.9697265625</ele><time>2025-02-21T03:12:10Z</time></trkpt>
<trkpt lat="37.47588203" lon="127.17947812"><ele>412.47711181640625</ele><time>2025-02-21T03:12:20Z</time></trkpt>
<trkpt lat="37.47582019" lon="127.1795607"><ele>411.66015625</ele><time>2025-02-21T03:12:28Z</time></trkpt>
<trkpt lat="37.47574387" lon="127.17962904"><ele>409.77703857421875</ele><time>2025-02-21T03:12:35Z</time></trkpt>
<trkpt lat="37.47565089" lon="127.17965378"><ele>410.164794921875</ele><time>2025-02-21T03:12:41Z</time></trkpt>
<trkpt lat="37.47555709" lon="127.17965832"><ele>408.48431396484375</ele><time>2025-02-21T03:12:48Z</time></trkpt>
<trkpt lat="37.47545941" lon="127.17965721"><ele>406.854248046875</ele><time>2025-02-21T03:12:59Z</time></trkpt>
<trkpt lat="37.47536592" lon="127.17970352"><ele>407.2529296875</ele><time>2025-02-21T03:13:20Z</time></trkpt>
<trkpt lat="37.47531435" lon="127.17980792"><ele>406.824462890625</ele><time>2025-02-21T03:13:30Z</time></trkpt>
<trkpt lat="37.47528017" lon="127.17991493"><ele>406.65972900390625</ele><time>2025-02-21T03:13:40Z</time></trkpt>
<trkpt lat="37.47525512" lon="127.18002691"><ele>407.4393310546875</ele><time>2025-02-21T03:13:51Z</time></trkpt>
<trkpt lat="37.47525911" lon="127.18014389"><ele>406.7406005859375</ele><time>2025-02-21T03:14:03Z</time></trkpt>
<trkpt lat="37.47529201" lon="127.1802583"><ele>406.1278076171875</ele><time>2025-02-21T03:14:12Z</time></trkpt>
<trkpt lat="37.47530512" lon="127.18037488"><ele>406.9482421875</ele><time>2025-02-21T03:14:20Z</time></trkpt>
<trkpt lat="37.47527268" lon="127.18049149"><ele>405.33978271484375</ele><time>2025-02-21T03:14:29Z</time></trkpt>
<trkpt lat="37.47518379" lon="127.18054975"><ele>406.521240234375</ele><time>2025-02-21T03:14:36Z</time></trkpt>
<trkpt lat="37.47509162" lon="127.18054806"><ele>405.5728759765625</ele><time>2025-02-21T03:14:43Z</time></trkpt>
<trkpt lat="37.47499783" lon="127.18056263"><ele>404.3414306640625</ele><time>2025-02-21T03:14:51Z</time></trkpt>
<trkpt lat="37.47490223" lon="127.18058598"><ele>404.7391357421875</ele><time>2025-02-21T03:15:00Z</time></trkpt>
<trkpt lat="37.47480404" lon="127.18059445"><ele>402.7803955078125</ele><time>2025-02-21T03:15:09Z</time></trkpt>
<trkpt lat="37.47470429" lon="127.18060762"><ele>400.9383544921875</ele><time>2025-02-21T03:15:18Z</time></trkpt>
<trkpt lat="37.47460885" lon="127.18063344"><ele>398.21484375</ele><time>2025-02-21T03:15:27Z</time></trkpt>
<trkpt lat="37.47453217" lon="127.18069768"><ele>397.20782470703125</ele><time>2025-02-21T03:15:36Z</time></trkpt>
<trkpt lat="37.47446567" lon="127.18078267"><ele>397.333984375</ele><time>2025-02-21T03:15:45Z</time></trkpt>
<trkpt lat="37.47439679" lon="127.18085753"><ele>396.5303955078125</ele><time>2025-02-21T03:15:53Z</time></trkpt>
<trkpt lat="37.47432815" lon="127.18093315"><ele>395.2137451171875</ele><time>2025-02-21T03:16:02Z</time></trkpt>
<trkpt lat="37.47422996" lon="127.18097144"><ele>393.4591064453125</ele><time>2025-02-21T03:16:10Z</time></trkpt>
<trkpt lat="37.4741483" lon="127.18103972"><ele>393.0010986328125</ele><time>2025-02-21T03:16:17Z</time></trkpt>
<trkpt lat="37.47405794" lon="127.18108842"><ele>392.397705078125</ele><time>2025-02-21T03:16:25Z</time></trkpt>
<trkpt lat="37.47397297" lon="127.18114323"><ele>392.8316650390625</ele><time>2025-02-21T03:16:33Z</time></trkpt>
<trkpt lat="37.47389066" lon="127.18120191"><ele>393.0953369140625</ele><time>2025-02-21T03:16:40Z</time></trkpt>
<trkpt lat="37.47379465" lon="127.1812458"><ele>393.22979736328125</ele><time>2025-02-21T03:16:47Z</time></trkpt>
<trkpt lat="37.47369986" lon="127.18127293"><ele>391.80426025390625</ele><time>2025-02-21T03:16:54Z</time></trkpt>
<trkpt lat="37.47360442" lon="127.18130709"><ele>390.279296875</ele><time>2025-02-21T03:17:02Z</time></trkpt>
<trkpt lat="37.4735101" lon="127.18132268"><ele>389.565185546875</ele><time>2025-02-21T03:17:08Z</time></trkpt>
<trkpt lat="37.4734148" lon="127.18134755"><ele>388.0845947265625</ele><time>2025-02-21T03:17:26Z</time></trkpt>
<trkpt lat="37.4733498" lon="127.18126378"><ele>388.3453369140625</ele><time>2025-02-21T03:17:45Z</time></trkpt>
<trkpt lat="37.47335466" lon="127.18113964"><ele>383.9757080078125</ele><time>2025-02-21T03:18:34Z</time></trkpt>
<trkpt lat="37.47327371" lon="127.18108937"><ele>385.168701171875</ele><time>2025-02-21T03:18:53Z</time></trkpt>
<trkpt lat="37.47336303" lon="127.18107171"><ele>385.91607666015625</ele><time>2025-02-21T03:19:40Z</time></trkpt>
<trkpt lat="37.47332405" lon="127.1811752"><ele>387.6708984375</ele><time>2025-02-21T03:20:11Z</time></trkpt>
<trkpt lat="37.47335882" lon="127.18128192"><ele>386.35302734375</ele><time>2025-02-21T03:20:20Z</time></trkpt>
<trkpt lat="37.47338495" lon="127.18139269"><ele>386.06524658203125</ele><time>2025-02-21T03:20:43Z</time></trkpt>
<trkpt lat="37.47335897" lon="127.18150434"><ele>385.87347412109375</ele><time>2025-02-21T03:21:36Z</time></trkpt>
<trkpt lat="37.47333808" lon="127.18162464"><ele>384.1549072265625</ele><time>2025-02-21T03:21:55Z</time></trkpt>
<trkpt lat="37.47333202" lon="127.18174076"><ele>382.7108154296875</ele><time>2025-02-21T03:23:17Z</time></trkpt>
<trkpt lat="37.47329879" lon="127.18186093"><ele>382.9398193359375</ele><time>2025-02-21T03:23:24Z</time></trkpt>
<trkpt lat="37.47324755" lon="127.18196465"><ele>382.278564453125</ele><time>2025-02-21T03:23:31Z</time></trkpt>
<trkpt lat="37.47325575" lon="127.18207977"><ele>380.6964111328125</ele><time>2025-02-21T03:23:39Z</time></trkpt>
<trkpt lat="37.47330673" lon="127.18218459"><ele>379.7349853515625</ele><time>2025-02-21T03:23:47Z</time></trkpt>
<trkpt lat="37.47340163" lon="127.1822253"><ele>379.93853759765625</ele><time>2025-02-21T03:23:54Z</time></trkpt>
<trkpt lat="37.47349768" lon="127.18223887"><ele>379.616943359375</ele><time>2025-02-21T03:24:01Z</time></trkpt>
<trkpt lat="37.47358953" lon="127.18225162"><ele>379.1981201171875</ele><time>2025-02-21T03:24:07Z</time></trkpt>
<trkpt lat="37.47368602" lon="127.18227066"><ele>379.28399658203125</ele><time>2025-02-21T03:24:14Z</time></trkpt>
<trkpt lat="37.4737786" lon="127.18227136"><ele>377.861328125</ele><time>2025-02-21T03:24:21Z</time></trkpt>
<trkpt lat="37.47387274" lon="127.18226056"><ele>376.5718994140625</ele><time>2025-02-21T03:24:28Z</time></trkpt>
<trkpt lat="37.47396509" lon="127.18227631"><ele>373.895263671875</ele><time>2025-02-21T03:24:35Z</time></trkpt>
<trkpt lat="37.474049" lon="127.18222334"><ele>374.1072998046875</ele><time>2025-02-21T03:24:42Z</time></trkpt>
<trkpt lat="37.47414175" lon="127.18221724"><ele>374.2265625</ele><time>2025-02-21T03:24:49Z</time></trkpt>
<trkpt lat="37.47423228" lon="127.18222262"><ele>373.9171142578125</ele><time>2025-02-21T03:24:56Z</time></trkpt>
<trkpt lat="37.47432651" lon="127.18225134"><ele>372.600341796875</ele><time>2025-02-21T03:25:04Z</time></trkpt>
<trkpt lat="37.47441249" lon="127.18229569"><ele>371.43072509765625</ele><time>2025-02-21T03:25:13Z</time></trkpt>
<trkpt lat="37.47450241" lon="127.18232878"><ele>371.3155517578125</ele><time>2025-02-21T03:25:29Z</time></trkpt>
<trkpt lat="37.47456021" lon="127.18241596"><ele>369.010009765625</ele><time>2025-02-21T03:25:50Z</time></trkpt>
<trkpt lat="37.47465806" lon="127.18244527"><ele>373.4686279296875</ele><time>2025-02-21T03:29:40Z</time></trkpt>
<trkpt lat="37.47475491" lon="127.18249406"><ele>369.238037109375</ele><time>2025-02-21T03:30:06Z</time></trkpt>
<trkpt lat="37.47483687" lon="127.18254307"><ele>367.4609375</ele><time>2025-02-21T03:30:13Z</time></trkpt>
<trkpt lat="37.47492667" lon="127.18259695"><ele>366.30487060546875</ele><time>2025-02-21T03:30:20Z</time></trkpt>
<trkpt lat="37.47499759" lon="127.18266691"><ele>365.54986572265625</ele><time>2025-02-21T03:30:26Z</time></trkpt>
<trkpt lat="37.47507205" lon="127.18275101"><ele>365.00201416015625</ele><time>2025-02-21T03:30:33Z</time></trkpt>
<trkpt lat="37.47515213" lon="127.18282729"><ele>365.41363525390625</ele><time>2025-02-21T03:30:40Z</time></trkpt>
<trkpt lat="37.47524263" lon="127.18287695"><ele>364.39111328125</ele><time>2025-02-21T03:30:47Z</time></trkpt>
<trkpt lat="37.47534245" lon="127.18289636"><ele>364.4693603515625</ele><time>2025-02-21T03:30:54Z</time></trkpt>
<trkpt lat="37.47525241" lon="127.18285528"><ele>363.84423828125</ele><time>2025-02-21T03:31:09Z</time></trkpt>
<trkpt lat="37.47534357" lon="127.18287612"><ele>363.6468505859375</ele><time>2025-02-21T03:31:22Z</time></trkpt>
<trkpt lat="37.47543933" lon="127.18292003"><ele>363.5</ele><time>2025-02-21T03:31:29Z</time></trkpt>
<trkpt lat="37.47553082" lon="127.18295875"><ele>362.9605712890625</ele><time>2025-02-21T03:31:35Z</time></trkpt>
<trkpt lat="37.47563154" lon="127.18298846"><ele>362.1729736328125</ele><time>2025-02-21T03:31:42Z</time></trkpt>
<trkpt lat="37.47571277" lon="127.18306126"><ele>361.6885986328125</ele><time>2025-02-21T03:31:55Z</time></trkpt>
<trkpt lat="37.47578852" lon="127.18312628"><ele>360.3016357421875</ele><time>2025-02-21T03:32:01Z</time></trkpt>
<trkpt lat="37.47585891" lon="127.18320803"><ele>359.7181396484375</ele><time>2025-02-21T03:32:08Z</time></trkpt>
<trkpt lat="37.47593184" lon="127.18328395"><ele>359.3580322265625</ele><time>2025-02-21T03:32:15Z</time></trkpt>
<trkpt lat="37.47602191" lon="127.18333877"><ele>358.97265625</ele><time>2025-02-21T03:32:22Z</time></trkpt>
<trkpt lat="37.47610027" lon="127.18340209"><ele>358.50537109375</ele><time>2025-02-21T03:32:36Z</time></trkpt>
<trkpt lat="37.47616655" lon="127.18350148"><ele>357.722900390625</ele><time>2025-02-21T03:32:43Z</time></trkpt>
<trkpt lat="37.47622869" lon="127.18359012"><ele>357.770751953125</ele><time>2025-02-21T03:32:50Z</time></trkpt>
<trkpt lat="37.47629765" lon="127.1836809"><ele>356.4542236328125</ele><time>2025-02-21T03:33:01Z</time></trkpt>
<trkpt lat="37.47636157" lon="127.18377374"><ele>355.722412109375</ele><time>2025-02-21T03:33:08Z</time></trkpt>
<trkpt lat="37.47645306" lon="127.18381891"><ele>355.1990966796875</ele><time>2025-02-21T03:33:15Z</time></trkpt>
<trkpt lat="37.47654505" lon="127.18384168"><ele>353.6766357421875</ele><time>2025-02-21T03:33:22Z</time></trkpt>
<trkpt lat="37.4766419" lon="127.18384899"><ele>352.56201171875</ele><time>2025-02-21T03:33:29Z</time></trkpt>
<trkpt lat="37.47674488" lon="127.18385839"><ele>352.2403564453125</ele><time>2025-02-21T03:33:36Z</time></trkpt>
<trkpt lat="37.47683863" lon="127.183867"><ele>351.62884521484375</ele><time>2025-02-21T03:33:43Z</time></trkpt>
<trkpt lat="37.47693276" lon="127.18386355"><ele>352.4925537109375</ele><time>2025-02-21T03:33:50Z</time></trkpt>
<trkpt lat="37.47702435" lon="127.18387457"><ele>351.424560546875</ele><time>2025-02-21T03:34:00Z</time></trkpt>
<trkpt lat="37.47711926" lon="127.18386415"><ele>351.9945068359375</ele><time>2025-02-21T03:34:08Z</time></trkpt>
<trkpt lat="37.47721149" lon="127.18389096"><ele>350.6390380859375</ele><time>2025-02-21T03:34:16Z</time></trkpt>
<trkpt lat="37.47730992" lon="127.18391038"><ele>350.85693359375</ele><time>2025-02-21T03:34:23Z</time></trkpt>
<trkpt lat="37.4774045" lon="127.18392478"><ele>350.6873779296875</ele><time>2025-02-21T03:34:31Z</time></trkpt>
<trkpt lat="37.4775014" lon="127.18389776"><ele>350.1265869140625</ele><time>2025-02-21T03:34:41Z</time></trkpt>
<trkpt lat="37.4775919" lon="127.18388944"><ele>350.15704345703125</ele><time>2025-02-21T03:34:53Z</time></trkpt>
<trkpt lat="37.47768737" lon="127.18391953"><ele>349.8646240234375</ele><time>2025-02-21T03:35:20Z</time></trkpt>
<trkpt lat="37.47768904" lon="127.18403742"><ele>350.4852294921875</ele><time>2025-02-21T03:35:29Z</time></trkpt>
<trkpt lat="37.47776258" lon="127.18411589"><ele>351.70379638671875</ele><time>2025-02-21T03:35:38Z</time></trkpt>
<trkpt lat="37.47779408" lon="127.18413222"><ele>351.34149169921875</ele><time>2025-02-21T03:35:57Z</time></trkpt>
</trkseg>
</trk>
<wpt lat="37.4733314796823" lon="127.18130413065859"><name>남한산성 옛길 6번 지화문(남문)스탬프 </name><type>1</type></wpt>
<wpt lat="37.473512" lon="127.18057"><name>성남누비길 1구간 남한산성길 스탬프 </name><type>1</type></wpt>
<wpt lat="37.47998" lon="127.17656"><name>경기옛길 봉화길 제2길 수어장대스탬프 문화유산</name><type>1</type></wpt>
<wpt lat="37.48015744771623" lon="127.17592396028732"><name>남한산성 옛길 5번 수어장대스탬프 </name><type>1</type></wpt>
<wpt lat="37.48455463501753" lon="127.176217901395"><name>남한산성 옛길 4번 우익문(서문)스탬프 </name><type>1</type></wpt>
<wpt lat="37.48147778116686" lon="127.18470403530773"><name>남한산성 옛길 3번 전승문(북문)스탬프 </name><type>1</type></wpt>
<wpt lat="37.4733652" lon="127.1811347"><name>남한산성 지화문 남문_광주</name><type>1</type></wpt>
<wpt lat="37.47943" lon="127.175419"><name>남한산성 제6암문_광주</name><type>1</type></wpt>
<wpt lat="37.4798562" lon="127.1765631"><name>남한산 수어장대_광주</name><type>1</type></wpt>
<wpt lat="37.4846816" lon="127.1760758"><name>남한산성 우익문 서문_광주</name><type>1</type></wpt>
<wpt lat="37.4852688" lon="127.1776107"><name>남한산성 제5암문_광주</name><type>1</type></wpt>
<wpt lat="37.4815686" lon="127.1848437"><name>남한산성 전승문 북문_광주</name><type>1</type></wpt>
<wpt lat="37.48017" lon="127.17612"><name>청량산 광주</name><type>1</type></wpt>
</gpx>
