<?xml version="1.0" encoding="UTF-8"?>
<gpx creator="https://gpx.studio" version="1.1" xmlns="http://www.topografix.com/GPX/1/1" xmlns:xsi="http://www.w3.org/2001/XMLSchema-instance" xsi:schemaLocation="http://www.topografix.com/GPX/1/1 http://www.topografix.com/GPX/1/1/gpx.xsd http://www.garmin.com/xmlschemas/GpxExtensions/v3 http://www.garmin.com/xmlschemas/GpxExtensionsv3.xsd http://www.garmin.com/xmlschemas/TrackPointExtension/v1 http://www.garmin.com/xmlschemas/TrackPointExtensionv1.xsd http://www.garmin.com/xmlschemas/PowerExtension/v1 http://www.garmin.com/xmlschemas/PowerExtensionv1.xsd http://www.topografix.com/GPX/gpx_style/0/2 http://www.topografix.com/GPX/gpx_style/0/2/gpx_style.xsd" xmlns:gpxtpx="http://www.garmin.com/xmlschemas/TrackPointExtension/v1" xmlns:gpxx="http://www.garmin.com/xmlschemas/GpxExtensions/v3" xmlns:gpxpx="http://www.garmin.com/xmlschemas/PowerExtension/v1" xmlns:gpx_style="http://www.topografix.com/GPX/gpx_style/0/2">
  <metadata>
    <name>New file 1</name>
    <author>
      <name>gpx.studio</name>
      <link href="https://gpx.studio"/>
    </author>
  </metadata>
  <trk>
    <name>New file 1</name>
    <trkseg>
      <trkpt lat="37.202321" lon="128.913999">
        <ele>1273.75</ele>
      </trkpt>
      <trkpt lat="37.202352" lon="128.914002">
        <ele>1273.5</ele>
      </trkpt>
      <trkpt lat="37.202609" lon="128.914079">
        <ele>1271.5</ele>
      </trkpt>
      <trkpt lat="37.202908" lon="128.914309">
        <ele>1269.5</ele>
      </trkpt>
      <trkpt lat="37.203513" lon="128.914551">
        <ele>1270.25</ele>
      </trkpt>
      <trkpt lat="37.203762" lon="128.914848">
        <ele>1273.25</ele>
      </trkpt>
      <trkpt lat="37.204057" lon="128.915041">
        <ele>1277.75</ele>
      </trkpt>
      <trkpt lat="37.204269" lon="128.915151">
        <ele>1279.5</ele>
      </trkpt>
      <trkpt lat="37.204416" lon="128.91513">
        <ele>1281.5</ele>
      </trkpt>
      <trkpt lat="37.2047" lon="128.915013">
        <ele>1285.5</ele>
      </trkpt>
      <trkpt lat="37.204788" lon="128.915029">
        <ele>1286.5</ele>
      </trkpt>
      <trkpt lat="37.204858" lon="128.915082">
        <ele>1287.25</ele>
      </trkpt>
      <trkpt lat="37.205029" lon="128.915592">
        <ele>1289.5</ele>
      </trkpt>
      <trkpt lat="37.205106" lon="128.915658">
        <ele>1290.75</ele>
      </trkpt>
      <trkpt lat="37.2052" lon="128.915673">
        <ele>1292.75</ele>
      </trkpt>
      <trkpt lat="37.205445" lon="128.915587">
        <ele>1296.75</ele>
      </trkpt>
      <trkpt lat="37.205786" lon="128.91531">
        <ele>1299.25</ele>
      </trkpt>
      <trkpt lat="37.205942" lon="128.915356">
        <ele>1301.25</ele>
      </trkpt>
      <trkpt lat="37.206023" lon="128.915542">
        <ele>1304.5</ele>
      </trkpt>
      <trkpt lat="37.206055" lon="128.915617">
        <ele>1306</ele>
      </trkpt>
      <trkpt lat="37.206223" lon="128.915809">
        <ele>1311</ele>
      </trkpt>
      <trkpt lat="37.207285" lon="128.916092">
        <ele>1316.5</ele>
      </trkpt>
      <trkpt lat="37.207557" lon="128.916049">
        <ele>1318.75</ele>
      </trkpt>
      <trkpt lat="37.207911" lon="128.915861">
        <ele>1328</ele>
      </trkpt>
      <trkpt lat="37.208145" lon="128.915938">
        <ele>1329.75</ele>
      </trkpt>
      <trkpt lat="37.208366" lon="128.916057">
        <ele>1329.75</ele>
      </trkpt>
      <trkpt lat="37.208548" lon="128.916066">
        <ele>1333.5</ele>
      </trkpt>
      <trkpt lat="37.208683" lon="128.916034">
        <ele>1337.25</ele>
      </trkpt>
      <trkpt lat="37.208805" lon="128.915971">
        <ele>1342</ele>
      </trkpt>
      <trkpt lat="37.208983" lon="128.915783">
        <ele>1350.25</ele>
      </trkpt>
      <trkpt lat="37.20916" lon="128.91566">
        <ele>1353.75</ele>
      </trkpt>
      <trkpt lat="37.209446" lon="128.915581">
        <ele>1362.5</ele>
      </trkpt>
      <trkpt lat="37.209589" lon="128.915648">
        <ele>1367.5</ele>
      </trkpt>
      <trkpt lat="37.209683" lon="128.915623">
        <ele>1370.25</ele>
      </trkpt>
      <trkpt lat="37.209788" lon="128.915709">
        <ele>1374</ele>
      </trkpt>
      <trkpt lat="37.209916" lon="128.915682">
        <ele>1377.75</ele>
      </trkpt>
      <trkpt lat="37.210023" lon="128.915648">
        <ele>1381</ele>
      </trkpt>
      <trkpt lat="37.210153" lon="128.915656">
        <ele>1384</ele>
      </trkpt>
      <trkpt lat="37.210386" lon="128.915567">
        <ele>1389.25</ele>
      </trkpt>
      <trkpt lat="37.210507" lon="128.915535">
        <ele>1391.75</ele>
      </trkpt>
      <trkpt lat="37.210633" lon="128.915546">
        <ele>1394.75</ele>
      </trkpt>
      <trkpt lat="37.210861" lon="128.915607">
        <ele>1400.25</ele>
      </trkpt>
      <trkpt lat="37.210969" lon="128.915615">
        <ele>1401.75</ele>
      </trkpt>
      <trkpt lat="37.211084" lon="128.915677">
        <ele>1404.25</ele>
      </trkpt>
      <trkpt lat="37.211286" lon="128.915709">
        <ele>1407.5</ele>
      </trkpt>
      <trkpt lat="37.211518" lon="128.91586">
        <ele>1412.75</ele>
      </trkpt>
      <trkpt lat="37.211795" lon="128.915976">
        <ele>1409</ele>
      </trkpt>
      <trkpt lat="37.211833" lon="128.915992">
        <ele>1408.5</ele>
      </trkpt>
      <trkpt lat="37.212" lon="128.91535">
        <ele>1398</ele>
      </trkpt>
      <trkpt lat="37.212298" lon="128.914835">
        <ele>1380.5</ele>
      </trkpt>
      <trkpt lat="37.212413" lon="128.914292">
        <ele>1363.5</ele>
      </trkpt>
      <trkpt lat="37.212647" lon="128.913633">
        <ele>1341</ele>
      </trkpt>
      <trkpt lat="37.212704" lon="128.91321">
        <ele>1331</ele>
      </trkpt>
      <trkpt lat="37.212657" lon="128.913011">
        <ele>1329.5</ele>
      </trkpt>
      <trkpt lat="37.212731" lon="128.912437">
        <ele>1321.75</ele>
      </trkpt>
      <trkpt lat="37.212795" lon="128.912098">
        <ele>1321</ele>
      </trkpt>
      <trkpt lat="37.212917" lon="128.911871">
        <ele>1320.75</ele>
      </trkpt>
      <trkpt lat="37.213109" lon="128.91175">
        <ele>1321</ele>
      </trkpt>
      <trkpt lat="37.21312" lon="128.911552">
        <ele>1319.75</ele>
      </trkpt>
      <trkpt lat="37.213152" lon="128.911391">
        <ele>1317.5</ele>
      </trkpt>
      <trkpt lat="37.213139" lon="128.911286">
        <ele>1316</ele>
      </trkpt>
      <trkpt lat="37.213152" lon="128.91116">
        <ele>1314.25</ele>
      </trkpt>
      <trkpt lat="37.21322" lon="128.911091">
        <ele>1313.75</ele>
      </trkpt>
      <trkpt lat="37.213252" lon="128.910981">
        <ele>1312.5</ele>
      </trkpt>
      <trkpt lat="37.213287" lon="128.910951">
        <ele>1312.25</ele>
      </trkpt>
      <trkpt lat="37.213482" lon="128.910909">
        <ele>1310.75</ele>
      </trkpt>
      <trkpt lat="37.213543" lon="128.910932">
        <ele>1310.5</ele>
      </trkpt>
      <trkpt lat="37.213618" lon="128.910959">
        <ele>1310</ele>
      </trkpt>
      <trkpt lat="37.213708" lon="128.911072">
        <ele>1309.75</ele>
      </trkpt>
      <trkpt lat="37.213925" lon="128.911142">
        <ele>1307.25</ele>
      </trkpt>
      <trkpt lat="37.214066" lon="128.910989">
        <ele>1306</ele>
      </trkpt>
      <trkpt lat="37.214687" lon="128.910806">
        <ele>1307</ele>
      </trkpt>
      <trkpt lat="37.21493" lon="128.910659">
        <ele>1309</ele>
      </trkpt>
      <trkpt lat="37.215015" lon="128.910631">
        <ele>1309.5</ele>
      </trkpt>
      <trkpt lat="37.215127" lon="128.910601">
        <ele>1308.25</ele>
      </trkpt>
      <trkpt lat="37.215261" lon="128.910633">
        <ele>1306</ele>
      </trkpt>
      <trkpt lat="37.215318" lon="128.910594">
        <ele>1305.75</ele>
      </trkpt>
      <trkpt lat="37.215809" lon="128.910356">
        <ele>1304</ele>
      </trkpt>
      <trkpt lat="37.216023" lon="128.910272">
        <ele>1302.25</ele>
      </trkpt>
      <trkpt lat="37.216253" lon="128.910218">
        <ele>1299.5</ele>
      </trkpt>
      <trkpt lat="37.216471" lon="128.910272">
        <ele>1293.75</ele>
      </trkpt>
      <trkpt lat="37.216681" lon="128.910305">
        <ele>1289</ele>
      </trkpt>
      <trkpt lat="37.216988" lon="128.910443">
        <ele>1283.5</ele>
      </trkpt>
      <trkpt lat="37.217103" lon="128.910526">
        <ele>1280.5</ele>
      </trkpt>
      <trkpt lat="37.217322" lon="128.910624">
        <ele>1277</ele>
      </trkpt>
      <trkpt lat="37.217539" lon="128.910644">
        <ele>1276</ele>
      </trkpt>
      <trkpt lat="37.217656" lon="128.910716">
        <ele>1273</ele>
      </trkpt>
      <trkpt lat="37.217764" lon="128.910707">
        <ele>1272.75</ele>
      </trkpt>
      <trkpt lat="37.217984" lon="128.910726">
        <ele>1271.25</ele>
      </trkpt>
      <trkpt lat="37.218098" lon="128.910726">
        <ele>1270.75</ele>
      </trkpt>
      <trkpt lat="37.218243" lon="128.910668">
        <ele>1270.75</ele>
      </trkpt>
      <trkpt lat="37.218395" lon="128.910722">
        <ele>1268.5</ele>
      </trkpt>
      <trkpt lat="37.218463" lon="128.910765">
        <ele>1267</ele>
      </trkpt>
      <trkpt lat="37.218557" lon="128.910774">
        <ele>1265.25</ele>
      </trkpt>
      <trkpt lat="37.218682" lon="128.910767">
        <ele>1263.25</ele>
      </trkpt>
      <trkpt lat="37.218912" lon="128.910868">
        <ele>1258.25</ele>
      </trkpt>
      <trkpt lat="37.219037" lon="128.91094">
        <ele>1254.75</ele>
      </trkpt>
      <trkpt lat="37.219216" lon="128.9109">
        <ele>1253.25</ele>
      </trkpt>
      <trkpt lat="37.219407" lon="128.910977">
        <ele>1250.75</ele>
      </trkpt>
      <trkpt lat="37.21975" lon="128.911354">
        <ele>1246.75</ele>
      </trkpt>
      <trkpt lat="37.220256" lon="128.911748">
        <ele>1245.75</ele>
      </trkpt>
      <trkpt lat="37.220748" lon="128.912041">
        <ele>1243.5</ele>
      </trkpt>
      <trkpt lat="37.221207" lon="128.912251">
        <ele>1242.75</ele>
      </trkpt>
      <trkpt lat="37.22145" lon="128.912732">
        <ele>1248.5</ele>
      </trkpt>
      <trkpt lat="37.221841" lon="128.91315">
        <ele>1256.5</ele>
      </trkpt>
      <trkpt lat="37.222246" lon="128.913468">
        <ele>1259.5</ele>
      </trkpt>
      <trkpt lat="37.222666" lon="128.913821">
        <ele>1253.5</ele>
      </trkpt>
      <trkpt lat="37.222886" lon="128.914381">
        <ele>1241.5</ele>
      </trkpt>
      <trkpt lat="37.223128" lon="128.914893">
        <ele>1234.5</ele>
      </trkpt>
      <trkpt lat="37.223822" lon="128.915604">
        <ele>1212.75</ele>
      </trkpt>
      <trkpt lat="37.22421" lon="128.915899">
        <ele>1210.25</ele>
      </trkpt>
      <trkpt lat="37.224651" lon="128.916154">
        <ele>1202.75</ele>
      </trkpt>
      <trkpt lat="37.224976" lon="128.916584">
        <ele>1205</ele>
      </trkpt>
      <trkpt lat="37.225169" lon="128.916589">
        <ele>1205.5</ele>
      </trkpt>
      <trkpt lat="37.225347" lon="128.916517">
        <ele>1205</ele>
      </trkpt>
      <trkpt lat="37.226093" lon="128.916557">
        <ele>1203</ele>
      </trkpt>
      <trkpt lat="37.226323" lon="128.916553">
        <ele>1201</ele>
      </trkpt>
      <trkpt lat="37.226527" lon="128.916635">
        <ele>1199.75</ele>
      </trkpt>
      <trkpt lat="37.226647" lon="128.916777">
        <ele>1197.5</ele>
      </trkpt>
      <trkpt lat="37.226764" lon="128.916838">
        <ele>1196.5</ele>
      </trkpt>
      <trkpt lat="37.226993" lon="128.916809">
        <ele>1196.25</ele>
      </trkpt>
      <trkpt lat="37.227306" lon="128.916936">
        <ele>1192.75</ele>
      </trkpt>
      <trkpt lat="37.227565" lon="128.917069">
        <ele>1188.75</ele>
      </trkpt>
      <trkpt lat="37.227813" lon="128.917233">
        <ele>1184.25</ele>
      </trkpt>
      <trkpt lat="37.227992" lon="128.917388">
        <ele>1180</ele>
      </trkpt>
      <trkpt lat="37.228246" lon="128.917508">
        <ele>1176.75</ele>
      </trkpt>
      <trkpt lat="37.228575" lon="128.917559">
        <ele>1171.75</ele>
      </trkpt>
      <trkpt lat="37.228694" lon="128.917578">
        <ele>1170.25</ele>
      </trkpt>
      <trkpt lat="37.229146" lon="128.917556">
        <ele>1166.5</ele>
      </trkpt>
      <trkpt lat="37.229448" lon="128.917506">
        <ele>1163</ele>
      </trkpt>
      <trkpt lat="37.229621" lon="128.917548">
        <ele>1158.75</ele>
      </trkpt>
      <trkpt lat="37.229816" lon="128.91749">
        <ele>1157.25</ele>
      </trkpt>
      <trkpt lat="37.230051" lon="128.917327">
        <ele>1156.25</ele>
      </trkpt>
      <trkpt lat="37.230367" lon="128.917222">
        <ele>1152.5</ele>
      </trkpt>
      <trkpt lat="37.23068" lon="128.917088">
        <ele>1148.75</ele>
      </trkpt>
      <trkpt lat="37.230939" lon="128.916989">
        <ele>1145.25</ele>
      </trkpt>
      <trkpt lat="37.231146" lon="128.916886">
        <ele>1142</ele>
      </trkpt>
      <trkpt lat="37.231377" lon="128.916935">
        <ele>1137.5</ele>
      </trkpt>
      <trkpt lat="37.23143" lon="128.916892">
        <ele>1136.5</ele>
      </trkpt>
      <trkpt lat="37.231644" lon="128.916963">
        <ele>1132.75</ele>
      </trkpt>
      <trkpt lat="37.2319" lon="128.917061">
        <ele>1128.25</ele>
      </trkpt>
      <trkpt lat="37.232285" lon="128.917125">
        <ele>1120.5</ele>
      </trkpt>
      <trkpt lat="37.232509" lon="128.91712">
        <ele>1115.75</ele>
      </trkpt>
      <trkpt lat="37.23307" lon="128.917015">
        <ele>1109</ele>
      </trkpt>
      <trkpt lat="37.233297" lon="128.917001">
        <ele>1106.5</ele>
      </trkpt>
      <trkpt lat="37.233378" lon="128.916997">
        <ele>1105.75</ele>
      </trkpt>
      <trkpt lat="37.233623" lon="128.916873">
        <ele>1104.75</ele>
      </trkpt>
      <trkpt lat="37.233822" lon="128.916879">
        <ele>1103.5</ele>
      </trkpt>
      <trkpt lat="37.234052" lon="128.917052">
        <ele>1102</ele>
      </trkpt>
      <trkpt lat="37.234915" lon="128.917735">
        <ele>1084</ele>
      </trkpt>
      <trkpt lat="37.235018" lon="128.917831">
        <ele>1081.5</ele>
      </trkpt>
      <trkpt lat="37.235384" lon="128.917918">
        <ele>1075</ele>
      </trkpt>
      <trkpt lat="37.235657" lon="128.917952">
        <ele>1070.5</ele>
      </trkpt>
      <trkpt lat="37.235927" lon="128.918096">
        <ele>1068.5</ele>
      </trkpt>
      <trkpt lat="37.23652" lon="128.918203">
        <ele>1071</ele>
      </trkpt>
      <trkpt lat="37.236498" lon="128.918351">
        <ele>1071</ele>
      </trkpt>
      <trkpt lat="37.236346" lon="128.91856">
        <ele>1066.5</ele>
      </trkpt>
      <trkpt lat="37.236199" lon="128.918687">
        <ele>1063.25</ele>
      </trkpt>
      <trkpt lat="37.235932" lon="128.918845">
        <ele>1058</ele>
      </trkpt>
      <trkpt lat="37.235633" lon="128.918939">
        <ele>1053.5</ele>
      </trkpt>
      <trkpt lat="37.235281" lon="128.918982">
        <ele>1049</ele>
      </trkpt>
      <trkpt lat="37.235112" lon="128.919065">
        <ele>1043.75</ele>
      </trkpt>
      <trkpt lat="37.235059" lon="128.919258">
        <ele>1036.5</ele>
      </trkpt>
      <trkpt lat="37.235078" lon="128.919344">
        <ele>1034.5</ele>
      </trkpt>
      <trkpt lat="37.235144" lon="128.91943">
        <ele>1033.5</ele>
      </trkpt>
      <trkpt lat="37.235291" lon="128.919542">
        <ele>1033.25</ele>
      </trkpt>
      <trkpt lat="37.235432" lon="128.919708">
        <ele>1031.75</ele>
      </trkpt>
      <trkpt lat="37.235507" lon="128.919869">
        <ele>1029.5</ele>
      </trkpt>
      <trkpt lat="37.235531" lon="128.920054">
        <ele>1027.5</ele>
      </trkpt>
      <trkpt lat="37.23548" lon="128.920202">
        <ele>1028.25</ele>
      </trkpt>
      <trkpt lat="37.235136" lon="128.920055">
        <ele>1020.25</ele>
      </trkpt>
      <trkpt lat="37.234717" lon="128.92006">
        <ele>1014.25</ele>
      </trkpt>
      <trkpt lat="37.234587" lon="128.920124">
        <ele>1013</ele>
      </trkpt>
      <trkpt lat="37.234335" lon="128.920151">
        <ele>1009.5</ele>
      </trkpt>
      <trkpt lat="37.234098" lon="128.920283">
        <ele>1007</ele>
      </trkpt>
      <trkpt lat="37.233877" lon="128.920499">
        <ele>1004.25</ele>
      </trkpt>
      <trkpt lat="37.233781" lon="128.920595">
        <ele>1003.25</ele>
      </trkpt>
      <trkpt lat="37.233576" lon="128.921247">
        <ele>996</ele>
      </trkpt>
      <trkpt lat="37.23337" lon="128.921694">
        <ele>986.75</ele>
      </trkpt>
      <trkpt lat="37.233021" lon="128.922128">
        <ele>986</ele>
      </trkpt>
      <trkpt lat="37.232812" lon="128.922597">
        <ele>978.75</ele>
      </trkpt>
      <trkpt lat="37.232656" lon="128.922836">
        <ele>972.5</ele>
      </trkpt>
      <trkpt lat="37.232464" lon="128.923007">
        <ele>965.5</ele>
      </trkpt>
      <trkpt lat="37.23215" lon="128.923324">
        <ele>962</ele>
      </trkpt>
      <trkpt lat="37.232104" lon="128.923512">
        <ele>961.5</ele>
      </trkpt>
      <trkpt lat="37.232096" lon="128.924136">
        <ele>959.75</ele>
      </trkpt>
      <trkpt lat="37.231827" lon="128.924549">
        <ele>955.25</ele>
      </trkpt>
      <trkpt lat="37.231523" lon="128.925055">
        <ele>950.75</ele>
      </trkpt>
      <trkpt lat="37.231183" lon="128.925586">
        <ele>947.25</ele>
      </trkpt>
      <trkpt lat="37.230984" lon="128.925945">
        <ele>937.75</ele>
      </trkpt>
      <trkpt lat="37.231004" lon="128.926177">
        <ele>937.25</ele>
      </trkpt>
      <trkpt lat="37.230932" lon="128.926804">
        <ele>930</ele>
      </trkpt>
      <trkpt lat="37.23092" lon="128.927152">
        <ele>927.5</ele>
      </trkpt>
      <trkpt lat="37.230826" lon="128.927302">
        <ele>921.5</ele>
      </trkpt>
      <trkpt lat="37.23081" lon="128.927559">
        <ele>920.5</ele>
      </trkpt>
      <trkpt lat="37.230858" lon="128.927758">
        <ele>921</ele>
      </trkpt>
      <trkpt lat="37.230933" lon="128.928007">
        <ele>924.75</ele>
      </trkpt>
      <trkpt lat="37.230935" lon="128.92821">
        <ele>924</ele>
      </trkpt>
      <trkpt lat="37.231024" lon="128.928506">
        <ele>925.75</ele>
      </trkpt>
      <trkpt lat="37.231082" lon="128.928695">
        <ele>927.25</ele>
      </trkpt>
      <trkpt lat="37.230736" lon="128.928325">
        <ele>922.5</ele>
      </trkpt>
      <trkpt lat="37.230668" lon="128.927774">
        <ele>924.25</ele>
      </trkpt>
      <trkpt lat="37.230538" lon="128.927376">
        <ele>927.5</ele>
      </trkpt>
      <trkpt lat="37.230356" lon="128.927192">
        <ele>931.25</ele>
      </trkpt>
      <trkpt lat="37.230316" lon="128.926956">
        <ele>931.25</ele>
      </trkpt>
      <trkpt lat="37.230211" lon="128.926773">
        <ele>931.75</ele>
      </trkpt>
      <trkpt lat="37.2299" lon="128.926311">
        <ele>937</ele>
      </trkpt>
      <trkpt lat="37.229733" lon="128.926138">
        <ele>938.5</ele>
      </trkpt>
      <trkpt lat="37.229446" lon="128.926021">
        <ele>938.5</ele>
      </trkpt>
      <trkpt lat="37.229305" lon="128.92602">
        <ele>938.5</ele>
      </trkpt>
      <trkpt lat="37.229158" lon="128.926076">
        <ele>940</ele>
      </trkpt>
      <trkpt lat="37.228923" lon="128.925945">
        <ele>942.25</ele>
      </trkpt>
      <trkpt lat="37.228406" lon="128.925369">
        <ele>950.25</ele>
      </trkpt>
      <trkpt lat="37.227711" lon="128.92466">
        <ele>962.25</ele>
      </trkpt>
      <trkpt lat="37.227392" lon="128.924548">
        <ele>963.5</ele>
      </trkpt>
      <trkpt lat="37.227238" lon="128.924523">
        <ele>964.75</ele>
      </trkpt>
      <trkpt lat="37.22704" lon="128.924593">
        <ele>966.75</ele>
      </trkpt>
      <trkpt lat="37.227238" lon="128.924523">
        <ele>964.75</ele>
      </trkpt>
      <trkpt lat="37.227392" lon="128.924548">
        <ele>963.5</ele>
      </trkpt>
      <trkpt lat="37.227711" lon="128.92466">
        <ele>962.25</ele>
      </trkpt>
      <trkpt lat="37.228406" lon="128.925369">
        <ele>950.25</ele>
      </trkpt>
      <trkpt lat="37.228923" lon="128.925945">
        <ele>942.25</ele>
      </trkpt>
      <trkpt lat="37.229158" lon="128.926076">
        <ele>940</ele>
      </trkpt>
      <trkpt lat="37.229305" lon="128.92602">
        <ele>938.5</ele>
      </trkpt>
      <trkpt lat="37.229446" lon="128.926021">
        <ele>938.5</ele>
      </trkpt>
      <trkpt lat="37.229733" lon="128.926138">
        <ele>938.5</ele>
      </trkpt>
      <trkpt lat="37.2299" lon="128.926311">
        <ele>937</ele>
      </trkpt>
      <trkpt lat="37.230211" lon="128.926773">
        <ele>931.75</ele>
      </trkpt>
      <trkpt lat="37.230316" lon="128.926956">
        <ele>931.25</ele>
      </trkpt>
      <trkpt lat="37.230356" lon="128.927192">
        <ele>931.25</ele>
      </trkpt>
      <trkpt lat="37.230538" lon="128.927376">
        <ele>927.5</ele>
      </trkpt>
      <trkpt lat="37.230668" lon="128.927774">
        <ele>924.25</ele>
      </trkpt>
      <trkpt lat="37.230736" lon="128.928325">
        <ele>922.5</ele>
      </trkpt>
      <trkpt lat="37.231082" lon="128.928695">
        <ele>927.25</ele>
      </trkpt>
      <trkpt lat="37.23114" lon="128.928906">
        <ele>927.5</ele>
      </trkpt>
      <trkpt lat="37.231108" lon="128.929355">
        <ele>924.25</ele>
      </trkpt>
      <trkpt lat="37.231108" lon="128.929702">
        <ele>925.25</ele>
      </trkpt>
      <trkpt lat="37.231162" lon="128.929852">
        <ele>927.25</ele>
      </trkpt>
      <trkpt lat="37.231144" lon="128.930183">
        <ele>928</ele>
      </trkpt>
      <trkpt lat="37.23111" lon="128.9304">
        <ele>928</ele>
      </trkpt>
      <trkpt lat="37.231032" lon="128.930583">
        <ele>926.25</ele>
      </trkpt>
      <trkpt lat="37.230769" lon="128.931093">
        <ele>920.5</ele>
      </trkpt>
      <trkpt lat="37.230666" lon="128.931355">
        <ele>921.75</ele>
      </trkpt>
      <trkpt lat="37.230623" lon="128.93159">
        <ele>921</ele>
      </trkpt>
      <trkpt lat="37.230612" lon="128.931765">
        <ele>919.5</ele>
      </trkpt>
      <trkpt lat="37.230666" lon="128.932157">
        <ele>913.5</ele>
      </trkpt>
      <trkpt lat="37.23074" lon="128.932479">
        <ele>907.75</ele>
      </trkpt>
      <trkpt lat="37.230828" lon="128.932613">
        <ele>904.5</ele>
      </trkpt>
      <trkpt lat="37.230926" lon="128.932808">
        <ele>907.75</ele>
      </trkpt>
      <trkpt lat="37.230916" lon="128.932932">
        <ele>906.75</ele>
      </trkpt>
      <trkpt lat="37.230858" lon="128.933093">
        <ele>903.75</ele>
      </trkpt>
      <trkpt lat="37.230775" lon="128.933211">
        <ele>904</ele>
      </trkpt>
      <trkpt lat="37.23064" lon="128.933521">
        <ele>905.5</ele>
      </trkpt>
      <trkpt lat="37.230612" lon="128.933787">
        <ele>903.75</ele>
      </trkpt>
      <trkpt lat="37.23064" lon="128.934045">
        <ele>900.75</ele>
      </trkpt>
      <trkpt lat="37.230875" lon="128.934377">
        <ele>896.25</ele>
      </trkpt>
      <trkpt lat="37.230951" lon="128.934571">
        <ele>898.25</ele>
      </trkpt>
      <trkpt lat="37.23096" lon="128.934747">
        <ele>897.25</ele>
      </trkpt>
      <trkpt lat="37.230935" lon="128.934854">
        <ele>895.25</ele>
      </trkpt>
      <trkpt lat="37.230871" lon="128.93493">
        <ele>892</ele>
      </trkpt>
      <trkpt lat="37.23067" lon="128.935053">
        <ele>891</ele>
      </trkpt>
      <trkpt lat="37.230602" lon="128.935112">
        <ele>891.5</ele>
      </trkpt>
      <trkpt lat="37.230557" lon="128.93519">
        <ele>891.5</ele>
      </trkpt>
      <trkpt lat="37.230512" lon="128.935381">
        <ele>891.25</ele>
      </trkpt>
      <trkpt lat="37.230516" lon="128.935705">
        <ele>890</ele>
      </trkpt>
      <trkpt lat="37.230554" lon="128.935839">
        <ele>889.25</ele>
      </trkpt>
      <trkpt lat="37.230608" lon="128.935935">
        <ele>888.25</ele>
      </trkpt>
      <trkpt lat="37.230778" lon="128.936162">
        <ele>885.5</ele>
      </trkpt>
      <trkpt lat="37.230835" lon="128.936221">
        <ele>884.5</ele>
      </trkpt>
      <trkpt lat="37.230965" lon="128.936354">
        <ele>889.5</ele>
      </trkpt>
      <trkpt lat="37.231054" lon="128.93649">
        <ele>892.5</ele>
      </trkpt>
      <trkpt lat="37.231102" lon="128.936692">
        <ele>893.25</ele>
      </trkpt>
      <trkpt lat="37.231091" lon="128.936949">
        <ele>890.75</ele>
      </trkpt>
      <trkpt lat="37.231037" lon="128.937323">
        <ele>885.75</ele>
      </trkpt>
      <trkpt lat="37.231001" lon="128.937494">
        <ele>883</ele>
      </trkpt>
    </trkseg>
  </trk>
</gpx>
